id,line1,line2,city,state,zip_code,country,created_at,updated_at
1,3422 Mcbride Junction,933 Fordem Road,R S,Gujarat,395003,India,2025-08-29T00:00:00.000Z,2025-08-29T00:00:00.000Z
2,86857 Hoepker Parkway,49698 Mccormick Trail,R S,Gujarat,395003,India,2025-08-29T00:00:00.000Z,2025-08-29T00:00:00.000Z
3,730 Gerald Hill,09 Buell Place,R S,Gujarat,395003,India,2025-08-29T00:00:00.000Z,2025-08-29T00:00:00.000Z
4,9 Emmet Junction,70 Meadow Vale Court,R S,Gujarat,395003,India,2025-08-29T00:00:00.000Z,2025-08-29T00:00:00.000Z
5,44 Bobwhite Park,133 Elgar Alley,Sadar Bazar,Uttar Pradesh,281002,India,2025-08-29T00:00:00.000Z,2025-08-29T00:00:00.000Z
6,9241 Fisk Trail,7 Granby Hill,Agraharam,Andhra Pradesh,532663,India,2025-08-29T00:00:00.000Z,2025-08-29T00:00:00.000Z
7,8088 Orin Terrace,56708 Donald Alley,R S,Gujarat,395003,India,2025-08-29T00:00:00.000Z,2025-08-29T00:00:00.000Z
8,5200 Debs Pass,741 Armistice Junction,R S,Gujarat,395003,India,2025-08-29T00:00:00.000Z,2025-08-29T00:00:00.000Z
9,9889 La Follette Way,7 Waywood Drive,Sadar Bazar,Uttar Pradesh,281002,India,2025-08-29T00:00:00.000Z,2025-08-29T00:00:00.000Z
10,73 East Parkway,728 Vera Pass,R S,Gujarat,395003,India,2025-08-29T00:00:00.000Z,2025-08-29T00:00:00.000Z
11,2 Gateway Circle,3 Mayer Junction,Sadar Bazar,Uttar Pradesh,281002,India,2025-08-29T00:00:00.000Z,2025-08-29T00:00:00.000Z
12,65773 Scoville Pass,0 Mayer Road,Agraharam,Andhra Pradesh,532663,India,2025-08-29T00:00:00.000Z,2025-08-29T00:00:00.000Z
13,8 Morrow Road,23 Florence Plaza,Agraharam,Andhra Pradesh,532663,India,2025-08-29T00:00:00.000Z,2025-08-29T00:00:00.000Z
14,2296 Mariners Cove Park,8 Oakridge Hill,R S,Gujarat,395003,India,2025-08-29T00:00:00.000Z,2025-08-29T00:00:00.000Z
15,9390 Leroy Terrace,9910 Oakridge Court,Sadar Bazar,Uttar Pradesh,281002,India,2025-08-29T00:00:00.000Z,2025-08-29T00:00:00.000Z
16,47941 Roth Center,6 Loftsgordon Parkway,R S,Gujarat,395003,India,2025-08-29T00:00:00.000Z,2025-08-29T00:00:00.000Z
17,7081 Dwight Park,03 Helena Avenue,Agraharam,Andhra Pradesh,532663,India,2025-08-29T00:00:00.000Z,2025-08-29T00:00:00.000Z
18,5 Moland Lane,03747 Northwestern Pass,R S,Gujarat,395003,India,2025-08-29T00:00:00.000Z,2025-08-29T00:00:00.000Z
19,30548 Troy Junction,87 Nevada Point,Agraharam,Andhra Pradesh,532663,India,2025-08-29T00:00:00.000Z,2025-08-29T00:00:00.000Z
20,9 Cascade Junction,09813 Chinook Avenue,Sadar Bazar,Uttar Pradesh,281002,India,2025-08-29T00:00:00.000Z,2025-08-29T00:00:00.000Z
21,25 La Follette Pass,082 Hooker Crossing,Agraharam,Andhra Pradesh,532663,India,2025-08-29T00:00:00.000Z,2025-08-29T00:00:00.000Z
22,4 Golden Leaf Lane,81154 Gateway Hill,R S,Gujarat,395003,India,2025-08-29T00:00:00.000Z,2025-08-29T00:00:00.000Z
23,1 Jenna Street,1 Steensland Park,Agraharam,Andhra Pradesh,532663,India,2025-08-29T00:00:00.000Z,2025-08-29T00:00:00.000Z
24,6 David Place,17 Caliangt Lane,R S,Gujarat,395003,India,2025-08-29T00:00:00.000Z,2025-08-29T00:00:00.000Z
25,23892 Prairieview Avenue,1271 Basil Alley,Agraharam,Andhra Pradesh,532663,India,2025-08-29T00:00:00.000Z,2025-08-29T00:00:00.000Z
26,93763 American Ash Avenue,2416 Mayfield Way,Agraharam,Andhra Pradesh,532663,India,2025-08-29T00:00:00.000Z,2025-08-29T00:00:00.000Z
27,03612 Chive Alley,25348 Beilfuss Center,Sadar Bazar,Uttar Pradesh,281002,India,2025-08-29T00:00:00.000Z,2025-08-29T00:00:00.000Z
28,086 Westerfield Lane,1 Forest Dale Street,Sadar Bazar,Uttar Pradesh,281002,India,2025-08-29T00:00:00.000Z,2025-08-29T00:00:00.000Z
29,08813 Merrick Trail,61 Eagan Parkway,Agraharam,Andhra Pradesh,532663,India,2025-08-29T00:00:00.000Z,2025-08-29T00:00:00.000Z
30,84595 Tomscot Trail,4937 Longview Junction,Agraharam,Andhra Pradesh,532663,India,2025-08-29T00:00:00.000Z,2025-08-29T00:00:00.000Z
31,74 Brickson Park Park,08423 Golf View Hill,R S,Gujarat,395003,India,2025-08-29T00:00:00.000Z,2025-08-29T00:00:00.000Z
32,266 Southridge Alley,715 Autumn Leaf Drive,R S,Gujarat,395003,India,2025-08-29T00:00:00.000Z,2025-08-29T00:00:00.000Z
33,16320 Fallview Point,195 Carioca Street,Sadar Bazar,Uttar Pradesh,281002,India,2025-08-29T00:00:00.000Z,2025-08-29T00:00:00.000Z
34,50 Fordem Crossing,117 Killdeer Terrace,Sadar Bazar,Uttar Pradesh,281002,India,2025-08-29T00:00:00.000Z,2025-08-29T00:00:00.000Z
35,1 Forest Court,60561 Shoshone Crossing,R S,Gujarat,395003,India,2025-08-29T00:00:00.000Z,2025-08-29T00:00:00.000Z
36,90 Green Ridge Street,3019 Delladonna Street,Agraharam,Andhra Pradesh,532663,India,2025-08-29T00:00:00.000Z,2025-08-29T00:00:00.000Z
37,4 Nancy Plaza,30761 Twin Pines Trail,Agraharam,Andhra Pradesh,532663,India,2025-08-29T00:00:00.000Z,2025-08-29T00:00:00.000Z
38,36 Chinook Parkway,5140 Atwood Circle,Agraharam,Andhra Pradesh,532663,India,2025-08-29T00:00:00.000Z,2025-08-29T00:00:00.000Z
39,8 Corry Center,0 Schmedeman Crossing,Sadar Bazar,Uttar Pradesh,281002,India,2025-08-29T00:00:00.000Z,2025-08-29T00:00:00.000Z
40,2533 Ridgeway Parkway,3 Kedzie Plaza,R S,Gujarat,395003,India,2025-08-29T00:00:00.000Z,2025-08-29T00:00:00.000Z
41,93 Monterey Park,84 Muir Alley,R S,Gujarat,395003,India,2025-08-29T00:00:00.000Z,2025-08-29T00:00:00.000Z
42,62 Roth Avenue,8629 Westport Alley,Agraharam,Andhra Pradesh,532663,India,2025-08-29T00:00:00.000Z,2025-08-29T00:00:00.000Z
43,7 Jenna Avenue,79340 Menomonie Way,Agraharam,Andhra Pradesh,532663,India,2025-08-29T00:00:00.000Z,2025-08-29T00:00:00.000Z
44,9784 Jenifer Center,285 Doe Crossing Drive,Sadar Bazar,Uttar Pradesh,281002,India,2025-08-29T00:00:00.000Z,2025-08-29T00:00:00.000Z
45,0456 Burrows Plaza,23260 Village Parkway,Sadar Bazar,Uttar Pradesh,281002,India,2025-08-29T00:00:00.000Z,2025-08-29T00:00:00.000Z
46,51669 Portage Park,679 Twin Pines Crossing,Sadar Bazar,Uttar Pradesh,281002,India,2025-08-29T00:00:00.000Z,2025-08-29T00:00:00.000Z
47,218 Grayhawk Hill,69749 Dovetail Plaza,Agraharam,Andhra Pradesh,532663,India,2025-08-29T00:00:00.000Z,2025-08-29T00:00:00.000Z
48,4 Chive Plaza,723 Bellgrove Park,R S,Gujarat,395003,India,2025-08-29T00:00:00.000Z,2025-08-29T00:00:00.000Z
49,26835 Dayton Street,61 Dorton Place,Agraharam,Andhra Pradesh,532663,India,2025-08-29T00:00:00.000Z,2025-08-29T00:00:00.000Z
50,5 Cody Way,55 Waubesa Junction,Sadar Bazar,Uttar Pradesh,281002,India,2025-08-29T00:00:00.000Z,2025-08-29T00:00:00.000Z
51,93 Carberry Drive,4125 Nelson Place,R S,Gujarat,395003,India,2025-08-29T00:00:00.000Z,2025-08-29T00:00:00.000Z
52,33 Lakewood Gardens Trail,539 Mccormick Point,R S,Gujarat,395003,India,2025-08-29T00:00:00.000Z,2025-08-29T00:00:00.000Z
53,32529 Browning Terrace,666 Porter Park,Agraharam,Andhra Pradesh,532663,India,2025-08-29T00:00:00.000Z,2025-08-29T00:00:00.000Z
54,66 Paget Trail,6704 Bay Avenue,Sadar Bazar,Uttar Pradesh,281002,India,2025-08-29T00:00:00.000Z,2025-08-29T00:00:00.000Z
55,88378 Nevada Circle,6 Loeprich Avenue,Sadar Bazar,Uttar Pradesh,281002,India,2025-08-29T00:00:00.000Z,2025-08-29T00:00:00.000Z
56,55 Pennsylvania Hill,7010 Bluejay Road,Agraharam,Andhra Pradesh,532663,India,2025-08-29T00:00:00.000Z,2025-08-29T00:00:00.000Z
57,504 Butternut Crossing,769 Lakewood Gardens Hill,R S,Gujarat,395003,India,2025-08-29T00:00:00.000Z,2025-08-29T00:00:00.000Z
58,27132 Eagle Crest Drive,8 Arizona Hill,Agraharam,Andhra Pradesh,532663,India,2025-08-29T00:00:00.000Z,2025-08-29T00:00:00.000Z
59,31 Nancy Plaza,18083 Maple Center,R S,Gujarat,395003,India,2025-08-29T00:00:00.000Z,2025-08-29T00:00:00.000Z
60,12 7th Circle,5825 David Street,Sadar Bazar,Uttar Pradesh,281002,India,2025-08-29T00:00:00.000Z,2025-08-29T00:00:00.000Z
61,16874 Monument Center,22 Eastwood Circle,Agraharam,Andhra Pradesh,532663,India,2025-08-29T00:00:00.000Z,2025-08-29T00:00:00.000Z
62,053 Caliangt Crossing,456 Quincy Court,R S,Gujarat,395003,India,2025-08-29T00:00:00.000Z,2025-08-29T00:00:00.000Z
63,16 Paget Court,06 Ramsey Point,R S,Gujarat,395003,India,2025-08-29T00:00:00.000Z,2025-08-29T00:00:00.000Z
64,0922 Trailsway Street,39557 Superior Crossing,Agraharam,Andhra Pradesh,532663,India,2025-08-29T00:00:00.000Z,2025-08-29T00:00:00.000Z
65,3235 Gerald Plaza,71964 Haas Road,Sadar Bazar,Uttar Pradesh,281002,India,2025-08-29T00:00:00.000Z,2025-08-29T00:00:00.000Z
66,733 Lighthouse Bay Alley,86039 Arrowood Crossing,Agraharam,Andhra Pradesh,532663,India,2025-08-29T00:00:00.000Z,2025-08-29T00:00:00.000Z
67,94723 Mifflin Court,2 Ohio Drive,R S,Gujarat,395003,India,2025-08-29T00:00:00.000Z,2025-08-29T00:00:00.000Z
68,78 Harbort Lane,406 Manitowish Park,R S,Gujarat,395003,India,2025-08-29T00:00:00.000Z,2025-08-29T00:00:00.000Z
69,56613 Crownhardt Junction,8 Tennessee Hill,R S,Gujarat,395003,India,2025-08-29T00:00:00.000Z,2025-08-29T00:00:00.000Z
70,451 Chive Pass,39 Rockefeller Circle,Agraharam,Andhra Pradesh,532663,India,2025-08-29T00:00:00.000Z,2025-08-29T00:00:00.000Z
71,7 Johnson Court,83631 Summer Ridge Parkway,R S,Gujarat,395003,India,2025-08-29T00:00:00.000Z,2025-08-29T00:00:00.000Z
72,2 Helena Court,37 Mendota Center,Sadar Bazar,Uttar Pradesh,281002,India,2025-08-29T00:00:00.000Z,2025-08-29T00:00:00.000Z
73,73968 Warner Terrace,1 Pierstorff Place,R S,Gujarat,395003,India,2025-08-29T00:00:00.000Z,2025-08-29T00:00:00.000Z
74,50 Forest Alley,79 Eggendart Junction,Agraharam,Andhra Pradesh,532663,India,2025-08-29T00:00:00.000Z,2025-08-29T00:00:00.000Z
75,6083 Sunfield Lane,545 Vernon Alley,R S,Gujarat,395003,India,2025-08-29T00:00:00.000Z,2025-08-29T00:00:00.000Z
76,58455 Corben Circle,98048 Nobel Pass,Sadar Bazar,Uttar Pradesh,281002,India,2025-08-29T00:00:00.000Z,2025-08-29T00:00:00.000Z
77,2 Ruskin Parkway,0 Crest Line Plaza,Agraharam,Andhra Pradesh,532663,India,2025-08-29T00:00:00.000Z,2025-08-29T00:00:00.000Z
78,8 Beilfuss Center,62035 Buell Way,R S,Gujarat,395003,India,2025-08-29T00:00:00.000Z,2025-08-29T00:00:00.000Z
79,268 Corscot Junction,4 Duke Alley,Agraharam,Andhra Pradesh,532663,India,2025-08-29T00:00:00.000Z,2025-08-29T00:00:00.000Z
80,65358 Upham Park,9427 Coolidge Parkway,Agraharam,Andhra Pradesh,532663,India,2025-08-29T00:00:00.000Z,2025-08-29T00:00:00.000Z
81,12027 Loftsgordon Avenue,059 Anthes Crossing,R S,Gujarat,395003,India,2025-08-29T00:00:00.000Z,2025-08-29T00:00:00.000Z
82,5378 Badeau Avenue,187 Rutledge Hill,R S,Gujarat,395003,India,2025-08-29T00:00:00.000Z,2025-08-29T00:00:00.000Z
83,0987 Caliangt Avenue,62176 Westerfield Parkway,R S,Gujarat,395003,India,2025-08-29T00:00:00.000Z,2025-08-29T00:00:00.000Z
84,3 Talmadge Street,8 Stuart Park,Agraharam,Andhra Pradesh,532663,India,2025-08-29T00:00:00.000Z,2025-08-29T00:00:00.000Z
85,90 Sundown Way,389 Ludington Place,R S,Gujarat,395003,India,2025-08-29T00:00:00.000Z,2025-08-29T00:00:00.000Z
86,6 Roth Avenue,838 Ohio Parkway,Agraharam,Andhra Pradesh,532663,India,2025-08-29T00:00:00.000Z,2025-08-29T00:00:00.000Z
87,73 Tony Place,7 Farwell Crossing,Sadar Bazar,Uttar Pradesh,281002,India,2025-08-29T00:00:00.000Z,2025-08-29T00:00:00.000Z
88,8260 Hooker Street,919 Blackbird Road,Agraharam,Andhra Pradesh,532663,India,2025-08-29T00:00:00.000Z,2025-08-29T00:00:00.000Z
89,113 Sunbrook Park,98 Glendale Point,Sadar Bazar,Uttar Pradesh,281002,India,2025-08-29T00:00:00.000Z,2025-08-29T00:00:00.000Z
90,3 Thierer Lane,2 Paget Terrace,Agraharam,Andhra Pradesh,532663,India,2025-08-29T00:00:00.000Z,2025-08-29T00:00:00.000Z
91,7 Summit Lane,1041 Stone Corner Center,R S,Gujarat,395003,India,2025-08-29T00:00:00.000Z,2025-08-29T00:00:00.000Z
92,2396 Rockefeller Parkway,8900 Glacier Hill Street,Sadar Bazar,Uttar Pradesh,281002,India,2025-08-29T00:00:00.000Z,2025-08-29T00:00:00.000Z
93,079 Steensland Park,56 Northland Circle,Agraharam,Andhra Pradesh,532663,India,2025-08-29T00:00:00.000Z,2025-08-29T00:00:00.000Z
94,594 Dapin Lane,85544 Ridgeway Junction,R S,Gujarat,395003,India,2025-08-29T00:00:00.000Z,2025-08-29T00:00:00.000Z
95,45313 Quincy Court,288 5th Street,R S,Gujarat,395003,India,2025-08-29T00:00:00.000Z,2025-08-29T00:00:00.000Z
96,4 Mifflin Street,4 Comanche Circle,Agraharam,Andhra Pradesh,532663,India,2025-08-29T00:00:00.000Z,2025-08-29T00:00:00.000Z
97,2817 Oriole Road,83697 Jay Trail,Sadar Bazar,Uttar Pradesh,281002,India,2025-08-29T00:00:00.000Z,2025-08-29T00:00:00.000Z
98,9931 La Follette Avenue,1736 Prentice Center,Agraharam,Andhra Pradesh,532663,India,2025-08-29T00:00:00.000Z,2025-08-29T00:00:00.000Z
99,0939 Moose Lane,6295 Sunfield Drive,R S,Gujarat,395003,India,2025-08-29T00:00:00.000Z,2025-08-29T00:00:00.000Z
100,8416 Bashford Alley,582 Carberry Plaza,R S,Gujarat,395003,India,2025-08-29T00:00:00.000Z,2025-08-29T00:00:00.000Z
101,79101 Elka Circle,995 Thompson Lane,Agraharam,Andhra Pradesh,532663,India,2025-08-29T00:00:00.000Z,2025-08-29T00:00:00.000Z
102,35 Coolidge Trail,676 Miller Point,Agraharam,Andhra Pradesh,532663,India,2025-08-29T00:00:00.000Z,2025-08-29T00:00:00.000Z
103,6183 American Trail,32479 Briar Crest Crossing,Sadar Bazar,Uttar Pradesh,281002,India,2025-08-29T00:00:00.000Z,2025-08-29T00:00:00.000Z
104,6664 Pearson Drive,087 Algoma Plaza,Agraharam,Andhra Pradesh,532663,India,2025-08-29T00:00:00.000Z,2025-08-29T00:00:00.000Z
105,82 David Point,3726 Westport Hill,Agraharam,Andhra Pradesh,532663,India,2025-08-29T00:00:00.000Z,2025-08-29T00:00:00.000Z
106,45 Redwing Terrace,8 Namekagon Alley,Sadar Bazar,Uttar Pradesh,281002,India,2025-08-29T00:00:00.000Z,2025-08-29T00:00:00.000Z
107,7 Troy Road,203 Melody Junction,Sadar Bazar,Uttar Pradesh,281002,India,2025-08-29T00:00:00.000Z,2025-08-29T00:00:00.000Z
108,55050 John Wall Parkway,58794 North Point,R S,Gujarat,395003,India,2025-08-29T00:00:00.000Z,2025-08-29T00:00:00.000Z
109,56 Kinsman Trail,927 Ridgeway Drive,Sadar Bazar,Uttar Pradesh,281002,India,2025-08-29T00:00:00.000Z,2025-08-29T00:00:00.000Z
110,9 Anhalt Crossing,128 Maywood Crossing,Agraharam,Andhra Pradesh,532663,India,2025-08-29T00:00:00.000Z,2025-08-29T00:00:00.000Z
111,4784 Fallview Way,4654 Dayton Alley,Sadar Bazar,Uttar Pradesh,281002,India,2025-08-29T00:00:00.000Z,2025-08-29T00:00:00.000Z
112,6 Gina Court,31490 Northfield Court,Sadar Bazar,Uttar Pradesh,281002,India,2025-08-29T00:00:00.000Z,2025-08-29T00:00:00.000Z
113,68534 Bellgrove Lane,509 Marcy Drive,Agraharam,Andhra Pradesh,532663,India,2025-08-29T00:00:00.000Z,2025-08-29T00:00:00.000Z
114,9149 Mcguire Alley,5705 Fairview Crossing,Sadar Bazar,Uttar Pradesh,281002,India,2025-08-29T00:00:00.000Z,2025-08-29T00:00:00.000Z
115,6858 Oriole Drive,9 Eliot Way,R S,Gujarat,395003,India,2025-08-29T00:00:00.000Z,2025-08-29T00:00:00.000Z
116,01604 Starling Way,9 Banding Way,Agraharam,Andhra Pradesh,532663,India,2025-08-29T00:00:00.000Z,2025-08-29T00:00:00.000Z
117,5068 Warrior Junction,1957 South Trail,Agraharam,Andhra Pradesh,532663,India,2025-08-29T00:00:00.000Z,2025-08-29T00:00:00.000Z
118,204 Lyons Circle,39743 Lotheville Road,Sadar Bazar,Uttar Pradesh,281002,India,2025-08-29T00:00:00.000Z,2025-08-29T00:00:00.000Z
119,7615 Ridgeway Crossing,73594 Sachtjen Way,Agraharam,Andhra Pradesh,532663,India,2025-08-29T00:00:00.000Z,2025-08-29T00:00:00.000Z
120,9 Granby Junction,9355 American Court,R S,Gujarat,395003,India,2025-08-29T00:00:00.000Z,2025-08-29T00:00:00.000Z
121,480 Marcy Street,90128 Northwestern Plaza,Agraharam,Andhra Pradesh,532663,India,2025-08-29T00:00:00.000Z,2025-08-29T00:00:00.000Z
122,10 Ridgeway Pass,748 Susan Crossing,Sadar Bazar,Uttar Pradesh,281002,India,2025-08-29T00:00:00.000Z,2025-08-29T00:00:00.000Z
123,69 East Point,1304 Macpherson Plaza,Agraharam,Andhra Pradesh,532663,India,2025-08-29T00:00:00.000Z,2025-08-29T00:00:00.000Z
124,3 Nova Way,5 American Alley,Agraharam,Andhra Pradesh,532663,India,2025-08-29T00:00:00.000Z,2025-08-29T00:00:00.000Z
125,04533 Merry Hill,47 Harper Crossing,Sadar Bazar,Uttar Pradesh,281002,India,2025-08-29T00:00:00.000Z,2025-08-29T00:00:00.000Z
126,421 Nevada Avenue,16 Derek Pass,Agraharam,Andhra Pradesh,532663,India,2025-08-29T00:00:00.000Z,2025-08-29T00:00:00.000Z
127,89675 Maywood Alley,41445 Oxford Pass,R S,Gujarat,395003,India,2025-08-29T00:00:00.000Z,2025-08-29T00:00:00.000Z
128,63854 Main Avenue,8258 Kropf Point,R S,Gujarat,395003,India,2025-08-29T00:00:00.000Z,2025-08-29T00:00:00.000Z
129,7 Bultman Junction,9 Monica Point,Sadar Bazar,Uttar Pradesh,281002,India,2025-08-29T00:00:00.000Z,2025-08-29T00:00:00.000Z
130,46047 Farwell Court,8 Union Avenue,Sadar Bazar,Uttar Pradesh,281002,India,2025-08-29T00:00:00.000Z,2025-08-29T00:00:00.000Z
131,08967 Moose Hill,92888 Morning Road,R S,Gujarat,395003,India,2025-08-29T00:00:00.000Z,2025-08-29T00:00:00.000Z
132,3 Park Meadow Center,576 Chive Court,Agraharam,Andhra Pradesh,532663,India,2025-08-29T00:00:00.000Z,2025-08-29T00:00:00.000Z
133,7 Debs Place,2145 Vermont Pass,R S,Gujarat,395003,India,2025-08-29T00:00:00.000Z,2025-08-29T00:00:00.000Z
134,5823 Clarendon Pass,32 Killdeer Place,R S,Gujarat,395003,India,2025-08-29T00:00:00.000Z,2025-08-29T00:00:00.000Z
135,24 Darwin Center,75449 Hoepker Pass,R S,Gujarat,395003,India,2025-08-29T00:00:00.000Z,2025-08-29T00:00:00.000Z
136,34 1st Lane,5 Mccormick Way,Agraharam,Andhra Pradesh,532663,India,2025-08-29T00:00:00.000Z,2025-08-29T00:00:00.000Z
137,99 8th Drive,080 Loeprich Street,Agraharam,Andhra Pradesh,532663,India,2025-08-29T00:00:00.000Z,2025-08-29T00:00:00.000Z
138,7 Oriole Court,0 Meadow Vale Plaza,R S,Gujarat,395003,India,2025-08-29T00:00:00.000Z,2025-08-29T00:00:00.000Z
139,8 Portage Pass,8058 Mitchell Street,Sadar Bazar,Uttar Pradesh,281002,India,2025-08-29T00:00:00.000Z,2025-08-29T00:00:00.000Z
140,850 Hansons Crossing,7549 Esch Circle,Sadar Bazar,Uttar Pradesh,281002,India,2025-08-29T00:00:00.000Z,2025-08-29T00:00:00.000Z
141,39036 Kipling Street,62780 Barby Place,R S,Gujarat,395003,India,2025-08-29T00:00:00.000Z,2025-08-29T00:00:00.000Z
142,05 Vermont Pass,4561 East Drive,Sadar Bazar,Uttar Pradesh,281002,India,2025-08-29T00:00:00.000Z,2025-08-29T00:00:00.000Z
143,7 Claremont Alley,46 Leroy Trail,Agraharam,Andhra Pradesh,532663,India,2025-08-29T00:00:00.000Z,2025-08-29T00:00:00.000Z
144,73 Hayes Circle,37 Forest Run Hill,Sadar Bazar,Uttar Pradesh,281002,India,2025-08-29T00:00:00.000Z,2025-08-29T00:00:00.000Z
145,24994 International Plaza,0754 Farwell Terrace,Agraharam,Andhra Pradesh,532663,India,2025-08-29T00:00:00.000Z,2025-08-29T00:00:00.000Z
146,0 Vera Circle,441 Hintze Trail,Sadar Bazar,Uttar Pradesh,281002,India,2025-08-29T00:00:00.000Z,2025-08-29T00:00:00.000Z
147,055 Delladonna Point,2 Granby Lane,Agraharam,Andhra Pradesh,532663,India,2025-08-29T00:00:00.000Z,2025-08-29T00:00:00.000Z
148,2 Farragut Park,623 Johnson Hill,Sadar Bazar,Uttar Pradesh,281002,India,2025-08-29T00:00:00.000Z,2025-08-29T00:00:00.000Z
149,28464 Sullivan Alley,962 Daystar Plaza,Sadar Bazar,Uttar Pradesh,281002,India,2025-08-29T00:00:00.000Z,2025-08-29T00:00:00.000Z
150,6 Coleman Avenue,4 Arrowood Lane,Agraharam,Andhra Pradesh,532663,India,2025-08-29T00:00:00.000Z,2025-08-29T00:00:00.000Z
151,78 School Place,43458 8th Center,Sadar Bazar,Uttar Pradesh,281002,India,2025-08-29T00:00:00.000Z,2025-08-29T00:00:00.000Z
152,56 Reindahl Point,1872 Donald Drive,Sadar Bazar,Uttar Pradesh,281002,India,2025-08-29T00:00:00.000Z,2025-08-29T00:00:00.000Z
153,5734 Bonner Drive,049 Goodland Court,R S,Gujarat,395003,India,2025-08-29T00:00:00.000Z,2025-08-29T00:00:00.000Z
154,27615 Bartillon Park,3531 Clemons Point,R S,Gujarat,395003,India,2025-08-29T00:00:00.000Z,2025-08-29T00:00:00.000Z
155,5892 Garrison Hill,09 Kingsford Lane,Agraharam,Andhra Pradesh,532663,India,2025-08-29T00:00:00.000Z,2025-08-29T00:00:00.000Z
156,201 6th Crossing,1 Little Fleur Crossing,R S,Gujarat,395003,India,2025-08-29T00:00:00.000Z,2025-08-29T00:00:00.000Z
157,8152 Gina Park,8594 Tennyson Hill,R S,Gujarat,395003,India,2025-08-29T00:00:00.000Z,2025-08-29T00:00:00.000Z
158,78 Carey Court,888 Southridge Point,R S,Gujarat,395003,India,2025-08-29T00:00:00.000Z,2025-08-29T00:00:00.000Z
159,57933 Johnson Hill,6 Armistice Trail,R S,Gujarat,395003,India,2025-08-29T00:00:00.000Z,2025-08-29T00:00:00.000Z
160,5083 Veith Terrace,7 Merry Way,Sadar Bazar,Uttar Pradesh,281002,India,2025-08-29T00:00:00.000Z,2025-08-29T00:00:00.000Z
161,157 Badeau Junction,707 Hollow Ridge Hill,R S,Gujarat,395003,India,2025-08-29T00:00:00.000Z,2025-08-29T00:00:00.000Z
162,6246 Hazelcrest Pass,3646 Morning Place,R S,Gujarat,395003,India,2025-08-29T00:00:00.000Z,2025-08-29T00:00:00.000Z
163,405 Evergreen Hill,18 Heath Road,Sadar Bazar,Uttar Pradesh,281002,India,2025-08-29T00:00:00.000Z,2025-08-29T00:00:00.000Z
164,29 Debra Road,06774 Village Lane,Sadar Bazar,Uttar Pradesh,281002,India,2025-08-29T00:00:00.000Z,2025-08-29T00:00:00.000Z
165,571 Garrison Way,379 Holmberg Crossing,Agraharam,Andhra Pradesh,532663,India,2025-08-29T00:00:00.000Z,2025-08-29T00:00:00.000Z
166,8 Sauthoff Court,64038 Donald Way,Agraharam,Andhra Pradesh,532663,India,2025-08-29T00:00:00.000Z,2025-08-29T00:00:00.000Z
167,13 Badeau Trail,4399 Elmside Drive,R S,Gujarat,395003,India,2025-08-29T00:00:00.000Z,2025-08-29T00:00:00.000Z
168,2566 Knutson Way,9 5th Avenue,Sadar Bazar,Uttar Pradesh,281002,India,2025-08-29T00:00:00.000Z,2025-08-29T00:00:00.000Z
169,7352 Mayer Street,05449 Jana Terrace,Sadar Bazar,Uttar Pradesh,281002,India,2025-08-29T00:00:00.000Z,2025-08-29T00:00:00.000Z
170,5769 Weeping Birch Place,8115 Maryland Way,R S,Gujarat,395003,India,2025-08-29T00:00:00.000Z,2025-08-29T00:00:00.000Z
171,2246 Prairie Rose Trail,68274 Forster Street,Agraharam,Andhra Pradesh,532663,India,2025-08-29T00:00:00.000Z,2025-08-29T00:00:00.000Z
172,65 Green Ridge Park,3 School Way,R S,Gujarat,395003,India,2025-08-29T00:00:00.000Z,2025-08-29T00:00:00.000Z
173,582 Superior Alley,38810 Reinke Drive,Sadar Bazar,Uttar Pradesh,281002,India,2025-08-29T00:00:00.000Z,2025-08-29T00:00:00.000Z
174,855 Morrow Avenue,923 Golf Course Junction,Sadar Bazar,Uttar Pradesh,281002,India,2025-08-29T00:00:00.000Z,2025-08-29T00:00:00.000Z
175,13 Northport Street,23 5th Circle,R S,Gujarat,395003,India,2025-08-29T00:00:00.000Z,2025-08-29T00:00:00.000Z
176,95316 Mallory Court,608 Stoughton Trail,Sadar Bazar,Uttar Pradesh,281002,India,2025-08-29T00:00:00.000Z,2025-08-29T00:00:00.000Z
177,02551 Kenwood Court,3424 Vernon Court,Sadar Bazar,Uttar Pradesh,281002,India,2025-08-29T00:00:00.000Z,2025-08-29T00:00:00.000Z
178,29 High Crossing Court,17600 John Wall Plaza,Agraharam,Andhra Pradesh,532663,India,2025-08-29T00:00:00.000Z,2025-08-29T00:00:00.000Z
179,354 Talmadge Hill,520 Columbus Court,Agraharam,Andhra Pradesh,532663,India,2025-08-29T00:00:00.000Z,2025-08-29T00:00:00.000Z
180,87774 Sauthoff Plaza,20 Bultman Alley,Agraharam,Andhra Pradesh,532663,India,2025-08-29T00:00:00.000Z,2025-08-29T00:00:00.000Z
181,4976 Schlimgen Crossing,16454 Green Drive,Sadar Bazar,Uttar Pradesh,281002,India,2025-08-29T00:00:00.000Z,2025-08-29T00:00:00.000Z
182,044 Farwell Circle,29 Ramsey Center,R S,Gujarat,395003,India,2025-08-29T00:00:00.000Z,2025-08-29T00:00:00.000Z
183,2 Troy Hill,02 Victoria Lane,Sadar Bazar,Uttar Pradesh,281002,India,2025-08-29T00:00:00.000Z,2025-08-29T00:00:00.000Z
184,41989 Corscot Court,13 Pennsylvania Crossing,R S,Gujarat,395003,India,2025-08-29T00:00:00.000Z,2025-08-29T00:00:00.000Z
185,72 Mallard Park,679 Meadow Valley Way,Sadar Bazar,Uttar Pradesh,281002,India,2025-08-29T00:00:00.000Z,2025-08-29T00:00:00.000Z
186,3211 Granby Hill,1535 Heath Hill,Sadar Bazar,Uttar Pradesh,281002,India,2025-08-29T00:00:00.000Z,2025-08-29T00:00:00.000Z
187,4737 Artisan Drive,9285 Red Cloud Center,Sadar Bazar,Uttar Pradesh,281002,India,2025-08-29T00:00:00.000Z,2025-08-29T00:00:00.000Z
188,534 Aberg Circle,83790 Evergreen Street,Sadar Bazar,Uttar Pradesh,281002,India,2025-08-29T00:00:00.000Z,2025-08-29T00:00:00.000Z
189,8 Barby Hill,626 Cottonwood Court,Sadar Bazar,Uttar Pradesh,281002,India,2025-08-29T00:00:00.000Z,2025-08-29T00:00:00.000Z
190,01449 Kipling Center,1062 Brown Avenue,Agraharam,Andhra Pradesh,532663,India,2025-08-29T00:00:00.000Z,2025-08-29T00:00:00.000Z
191,6636 Thierer Street,8945 Shopko Pass,R S,Gujarat,395003,India,2025-08-29T00:00:00.000Z,2025-08-29T00:00:00.000Z
192,0 Rutledge Way,63964 Vernon Pass,Sadar Bazar,Uttar Pradesh,281002,India,2025-08-29T00:00:00.000Z,2025-08-29T00:00:00.000Z
193,8 Pierstorff Road,94783 Larry Way,Sadar Bazar,Uttar Pradesh,281002,India,2025-08-29T00:00:00.000Z,2025-08-29T00:00:00.000Z
194,38056 Nelson Plaza,3702 Glendale Plaza,Agraharam,Andhra Pradesh,532663,India,2025-08-29T00:00:00.000Z,2025-08-29T00:00:00.000Z
195,6 Fremont Way,9471 8th Terrace,Sadar Bazar,Uttar Pradesh,281002,India,2025-08-29T00:00:00.000Z,2025-08-29T00:00:00.000Z
196,5631 Summerview Circle,097 Bobwhite Point,Sadar Bazar,Uttar Pradesh,281002,India,2025-08-29T00:00:00.000Z,2025-08-29T00:00:00.000Z
197,097 Scott Lane,78 Lighthouse Bay Place,Sadar Bazar,Uttar Pradesh,281002,India,2025-08-29T00:00:00.000Z,2025-08-29T00:00:00.000Z
198,3739 Memorial Drive,7 Clemons Way,Sadar Bazar,Uttar Pradesh,281002,India,2025-08-29T00:00:00.000Z,2025-08-29T00:00:00.000Z
199,26 Monument Drive,40844 Melby Park,R S,Gujarat,395003,India,2025-08-29T00:00:00.000Z,2025-08-29T00:00:00.000Z
200,7 Walton Center,899 Ruskin Center,R S,Gujarat,395003,India,2025-08-29T00:00:00.000Z,2025-08-29T00:00:00.000Z
201,73935 Mesta Trail,13 Carpenter Lane,R S,Gujarat,395003,India,2025-08-29T00:00:00.000Z,2025-08-29T00:00:00.000Z
202,7247 Bay Trail,478 Anhalt Plaza,R S,Gujarat,395003,India,2025-08-29T00:00:00.000Z,2025-08-29T00:00:00.000Z
203,26746 Schlimgen Alley,71 Sundown Terrace,Sadar Bazar,Uttar Pradesh,281002,India,2025-08-29T00:00:00.000Z,2025-08-29T00:00:00.000Z
204,3 Victoria Circle,24 Del Mar Lane,Sadar Bazar,Uttar Pradesh,281002,India,2025-08-29T00:00:00.000Z,2025-08-29T00:00:00.000Z
205,4512 Farragut Drive,024 Upham Center,R S,Gujarat,395003,India,2025-08-29T00:00:00.000Z,2025-08-29T00:00:00.000Z
206,736 5th Way,1 John Wall Crossing,Sadar Bazar,Uttar Pradesh,281002,India,2025-08-29T00:00:00.000Z,2025-08-29T00:00:00.000Z
207,43 Darwin Drive,30 Vernon Alley,Agraharam,Andhra Pradesh,532663,India,2025-08-29T00:00:00.000Z,2025-08-29T00:00:00.000Z
208,91 Maryland Circle,260 Elka Road,R S,Gujarat,395003,India,2025-08-29T00:00:00.000Z,2025-08-29T00:00:00.000Z
209,38 Schlimgen Way,5 Tomscot Parkway,R S,Gujarat,395003,India,2025-08-29T00:00:00.000Z,2025-08-29T00:00:00.000Z
210,5 Union Center,1 Ryan Alley,Sadar Bazar,Uttar Pradesh,281002,India,2025-08-29T00:00:00.000Z,2025-08-29T00:00:00.000Z
211,5637 Starling Alley,85318 Merrick Hill,Agraharam,Andhra Pradesh,532663,India,2025-08-29T00:00:00.000Z,2025-08-29T00:00:00.000Z
212,23003 Valley Edge Drive,69 Kings Drive,Sadar Bazar,Uttar Pradesh,281002,India,2025-08-29T00:00:00.000Z,2025-08-29T00:00:00.000Z
213,0194 Saint Paul Pass,7 Petterle Alley,R S,Gujarat,395003,India,2025-08-29T00:00:00.000Z,2025-08-29T00:00:00.000Z
214,58299 Buell Way,2 Londonderry Place,Sadar Bazar,Uttar Pradesh,281002,India,2025-08-29T00:00:00.000Z,2025-08-29T00:00:00.000Z
215,8 Merrick Park,9262 Dixon Avenue,R S,Gujarat,395003,India,2025-08-29T00:00:00.000Z,2025-08-29T00:00:00.000Z
216,81 Summer Ridge Crossing,1677 Bluejay Crossing,R S,Gujarat,395003,India,2025-08-29T00:00:00.000Z,2025-08-29T00:00:00.000Z
217,8 Grasskamp Hill,18054 Amoth Pass,Sadar Bazar,Uttar Pradesh,281002,India,2025-08-29T00:00:00.000Z,2025-08-29T00:00:00.000Z
218,74888 1st Point,05 Cottonwood Terrace,Sadar Bazar,Uttar Pradesh,281002,India,2025-08-29T00:00:00.000Z,2025-08-29T00:00:00.000Z
219,256 Utah Avenue,2 Dawn Pass,Agraharam,Andhra Pradesh,532663,India,2025-08-29T00:00:00.000Z,2025-08-29T00:00:00.000Z
220,31323 Fremont Hill,8 Maple Alley,Sadar Bazar,Uttar Pradesh,281002,India,2025-08-29T00:00:00.000Z,2025-08-29T00:00:00.000Z
221,5478 Farragut Court,262 Del Mar Center,R S,Gujarat,395003,India,2025-08-29T00:00:00.000Z,2025-08-29T00:00:00.000Z
222,59 Mifflin Lane,2 Nova Court,Sadar Bazar,Uttar Pradesh,281002,India,2025-08-29T00:00:00.000Z,2025-08-29T00:00:00.000Z
223,31 Darwin Way,7751 Nelson Alley,Agraharam,Andhra Pradesh,532663,India,2025-08-29T00:00:00.000Z,2025-08-29T00:00:00.000Z
224,833 Dorton Lane,789 Nancy Lane,Sadar Bazar,Uttar Pradesh,281002,India,2025-08-29T00:00:00.000Z,2025-08-29T00:00:00.000Z
225,0861 Springs Court,7 Fulton Road,R S,Gujarat,395003,India,2025-08-29T00:00:00.000Z,2025-08-29T00:00:00.000Z
226,093 Melvin Center,931 Judy Street,R S,Gujarat,395003,India,2025-08-29T00:00:00.000Z,2025-08-29T00:00:00.000Z
227,00 Rieder Avenue,7933 Express Point,Agraharam,Andhra Pradesh,532663,India,2025-08-29T00:00:00.000Z,2025-08-29T00:00:00.000Z
228,48 Utah Road,75 Westport Way,Agraharam,Andhra Pradesh,532663,India,2025-08-29T00:00:00.000Z,2025-08-29T00:00:00.000Z
229,45921 Harbort Hill,6 Havey Parkway,Agraharam,Andhra Pradesh,532663,India,2025-08-29T00:00:00.000Z,2025-08-29T00:00:00.000Z
230,4484 Emmet Circle,476 Butterfield Pass,R S,Gujarat,395003,India,2025-08-29T00:00:00.000Z,2025-08-29T00:00:00.000Z
231,25863 Daystar Avenue,0892 Coolidge Street,R S,Gujarat,395003,India,2025-08-29T00:00:00.000Z,2025-08-29T00:00:00.000Z
232,131 Waubesa Place,48728 Union Way,Sadar Bazar,Uttar Pradesh,281002,India,2025-08-29T00:00:00.000Z,2025-08-29T00:00:00.000Z
233,030 Atwood Plaza,3253 Thompson Parkway,Sadar Bazar,Uttar Pradesh,281002,India,2025-08-29T00:00:00.000Z,2025-08-29T00:00:00.000Z
234,66752 Mallard Hill,6 Graedel Street,Agraharam,Andhra Pradesh,532663,India,2025-08-29T00:00:00.000Z,2025-08-29T00:00:00.000Z
235,59179 Butternut Hill,73925 Eagle Crest Terrace,Sadar Bazar,Uttar Pradesh,281002,India,2025-08-29T00:00:00.000Z,2025-08-29T00:00:00.000Z
236,468 Springview Place,707 Kenwood Crossing,Agraharam,Andhra Pradesh,532663,India,2025-08-29T00:00:00.000Z,2025-08-29T00:00:00.000Z
237,0 Division Hill,28862 Commercial Way,R S,Gujarat,395003,India,2025-08-29T00:00:00.000Z,2025-08-29T00:00:00.000Z
238,99847 Moland Alley,7918 Fremont Center,R S,Gujarat,395003,India,2025-08-29T00:00:00.000Z,2025-08-29T00:00:00.000Z
239,0280 Reindahl Junction,9 Roxbury Parkway,Sadar Bazar,Uttar Pradesh,281002,India,2025-08-29T00:00:00.000Z,2025-08-29T00:00:00.000Z
240,8 Novick Hill,1133 Waubesa Street,Sadar Bazar,Uttar Pradesh,281002,India,2025-08-29T00:00:00.000Z,2025-08-29T00:00:00.000Z
241,859 Gale Place,8 Stephen Road,Sadar Bazar,Uttar Pradesh,281002,India,2025-08-29T00:00:00.000Z,2025-08-29T00:00:00.000Z
242,0956 Columbus Plaza,33809 Sauthoff Crossing,R S,Gujarat,395003,India,2025-08-29T00:00:00.000Z,2025-08-29T00:00:00.000Z
243,92852 Graedel Street,0631 Myrtle Road,Agraharam,Andhra Pradesh,532663,India,2025-08-29T00:00:00.000Z,2025-08-29T00:00:00.000Z
244,7 Arkansas Place,707 Manley Lane,Agraharam,Andhra Pradesh,532663,India,2025-08-29T00:00:00.000Z,2025-08-29T00:00:00.000Z
245,04399 Rieder Way,66 Delladonna Trail,Sadar Bazar,Uttar Pradesh,281002,India,2025-08-29T00:00:00.000Z,2025-08-29T00:00:00.000Z
246,69295 Morning Parkway,82730 Esker Lane,R S,Gujarat,395003,India,2025-08-29T00:00:00.000Z,2025-08-29T00:00:00.000Z
247,232 Granby Pass,23 American Ash Point,Sadar Bazar,Uttar Pradesh,281002,India,2025-08-29T00:00:00.000Z,2025-08-29T00:00:00.000Z
248,3716 Sutteridge Junction,9706 Jenifer Parkway,Agraharam,Andhra Pradesh,532663,India,2025-08-29T00:00:00.000Z,2025-08-29T00:00:00.000Z
249,57255 Evergreen Junction,8140 Ramsey Terrace,Agraharam,Andhra Pradesh,532663,India,2025-08-29T00:00:00.000Z,2025-08-29T00:00:00.000Z
250,76 Quincy Point,1775 Onsgard Park,R S,Gujarat,395003,India,2025-08-29T00:00:00.000Z,2025-08-29T00:00:00.000Z
251,6813 Nevada Terrace,692 Anzinger Place,R S,Gujarat,395003,India,2025-08-29T00:00:00.000Z,2025-08-29T00:00:00.000Z
252,705 Daystar Trail,5 Hudson Point,R S,Gujarat,395003,India,2025-08-29T00:00:00.000Z,2025-08-29T00:00:00.000Z
253,644 Johnson Way,6 8th Road,Agraharam,Andhra Pradesh,532663,India,2025-08-29T00:00:00.000Z,2025-08-29T00:00:00.000Z
254,8 Anhalt Court,3968 Del Sol Crossing,R S,Gujarat,395003,India,2025-08-29T00:00:00.000Z,2025-08-29T00:00:00.000Z
255,0 Nelson Circle,417 Graceland Trail,R S,Gujarat,395003,India,2025-08-29T00:00:00.000Z,2025-08-29T00:00:00.000Z
256,5262 Hanover Court,89361 Ludington Street,Sadar Bazar,Uttar Pradesh,281002,India,2025-08-29T00:00:00.000Z,2025-08-29T00:00:00.000Z
257,4705 Eggendart Pass,0141 Service Plaza,Agraharam,Andhra Pradesh,532663,India,2025-08-29T00:00:00.000Z,2025-08-29T00:00:00.000Z
258,8927 Lotheville Junction,6 Victoria Circle,Sadar Bazar,Uttar Pradesh,281002,India,2025-08-29T00:00:00.000Z,2025-08-29T00:00:00.000Z
259,79783 Texas Alley,59640 Loeprich Alley,Agraharam,Andhra Pradesh,532663,India,2025-08-29T00:00:00.000Z,2025-08-29T00:00:00.000Z
260,75 Mesta Plaza,857 Westerfield Point,Sadar Bazar,Uttar Pradesh,281002,India,2025-08-29T00:00:00.000Z,2025-08-29T00:00:00.000Z
261,68 Sundown Trail,72 Buena Vista Trail,Sadar Bazar,Uttar Pradesh,281002,India,2025-08-29T00:00:00.000Z,2025-08-29T00:00:00.000Z
262,404 Mcbride Circle,694 Golf Parkway,Sadar Bazar,Uttar Pradesh,281002,India,2025-08-29T00:00:00.000Z,2025-08-29T00:00:00.000Z
263,818 Welch Alley,58998 Ronald Regan Junction,Agraharam,Andhra Pradesh,532663,India,2025-08-29T00:00:00.000Z,2025-08-29T00:00:00.000Z
264,4304 Londonderry Street,92 Mandrake Court,Sadar Bazar,Uttar Pradesh,281002,India,2025-08-29T00:00:00.000Z,2025-08-29T00:00:00.000Z
265,18129 7th Avenue,214 Dahle Park,R S,Gujarat,395003,India,2025-08-29T00:00:00.000Z,2025-08-29T00:00:00.000Z
266,441 Debs Crossing,0076 Farragut Terrace,Agraharam,Andhra Pradesh,532663,India,2025-08-29T00:00:00.000Z,2025-08-29T00:00:00.000Z
267,5469 Del Mar Circle,37718 Utah Pass,R S,Gujarat,395003,India,2025-08-29T00:00:00.000Z,2025-08-29T00:00:00.000Z
268,337 Iowa Road,3 Oxford Trail,Sadar Bazar,Uttar Pradesh,281002,India,2025-08-29T00:00:00.000Z,2025-08-29T00:00:00.000Z
269,0205 Loftsgordon Drive,7 Dryden Center,Agraharam,Andhra Pradesh,532663,India,2025-08-29T00:00:00.000Z,2025-08-29T00:00:00.000Z
270,28510 Grim Lane,2 Farmco Point,Agraharam,Andhra Pradesh,532663,India,2025-08-29T00:00:00.000Z,2025-08-29T00:00:00.000Z
271,1062 Alpine Street,2476 Kipling Center,R S,Gujarat,395003,India,2025-08-29T00:00:00.000Z,2025-08-29T00:00:00.000Z
272,68 Crowley Center,75904 Lindbergh Avenue,Sadar Bazar,Uttar Pradesh,281002,India,2025-08-29T00:00:00.000Z,2025-08-29T00:00:00.000Z
273,89 Nancy Alley,0932 Fairfield Road,R S,Gujarat,395003,India,2025-08-29T00:00:00.000Z,2025-08-29T00:00:00.000Z
274,12926 Pearson Drive,0 Autumn Leaf Hill,R S,Gujarat,395003,India,2025-08-29T00:00:00.000Z,2025-08-29T00:00:00.000Z
275,6 Old Shore Point,1 Duke Crossing,Sadar Bazar,Uttar Pradesh,281002,India,2025-08-29T00:00:00.000Z,2025-08-29T00:00:00.000Z
276,521 Monument Alley,863 West Plaza,Sadar Bazar,Uttar Pradesh,281002,India,2025-08-29T00:00:00.000Z,2025-08-29T00:00:00.000Z
277,23166 Artisan Hill,45 Reindahl Terrace,R S,Gujarat,395003,India,2025-08-29T00:00:00.000Z,2025-08-29T00:00:00.000Z
278,7 Evergreen Way,803 Lillian Junction,Agraharam,Andhra Pradesh,532663,India,2025-08-29T00:00:00.000Z,2025-08-29T00:00:00.000Z
279,882 Meadow Ridge Avenue,06120 Clemons Alley,R S,Gujarat,395003,India,2025-08-29T00:00:00.000Z,2025-08-29T00:00:00.000Z
280,77048 Dayton Court,301 Marcy Court,Agraharam,Andhra Pradesh,532663,India,2025-08-29T00:00:00.000Z,2025-08-29T00:00:00.000Z
281,2 Erie Hill,1610 Paget Park,Agraharam,Andhra Pradesh,532663,India,2025-08-29T00:00:00.000Z,2025-08-29T00:00:00.000Z
282,97910 Cody Point,066 New Castle Lane,Agraharam,Andhra Pradesh,532663,India,2025-08-29T00:00:00.000Z,2025-08-29T00:00:00.000Z
283,293 Bowman Center,93 Caliangt Center,R S,Gujarat,395003,India,2025-08-29T00:00:00.000Z,2025-08-29T00:00:00.000Z
284,18899 Dunning Road,33205 Hayes Street,R S,Gujarat,395003,India,2025-08-29T00:00:00.000Z,2025-08-29T00:00:00.000Z
285,968 Garrison Trail,7697 Donald Hill,Agraharam,Andhra Pradesh,532663,India,2025-08-29T00:00:00.000Z,2025-08-29T00:00:00.000Z
286,197 Summit Pass,8 Kennedy Street,Agraharam,Andhra Pradesh,532663,India,2025-08-29T00:00:00.000Z,2025-08-29T00:00:00.000Z
287,27 Fairfield Plaza,41 Union Road,R S,Gujarat,395003,India,2025-08-29T00:00:00.000Z,2025-08-29T00:00:00.000Z
288,2 Weeping Birch Alley,82 Bayside Street,R S,Gujarat,395003,India,2025-08-29T00:00:00.000Z,2025-08-29T00:00:00.000Z
289,0250 Delladonna Plaza,12 Utah Crossing,Agraharam,Andhra Pradesh,532663,India,2025-08-29T00:00:00.000Z,2025-08-29T00:00:00.000Z
290,25 Weeping Birch Avenue,9212 Center Center,Sadar Bazar,Uttar Pradesh,281002,India,2025-08-29T00:00:00.000Z,2025-08-29T00:00:00.000Z
291,98 Buell Drive,3903 Parkside Terrace,Sadar Bazar,Uttar Pradesh,281002,India,2025-08-29T00:00:00.000Z,2025-08-29T00:00:00.000Z
292,5511 Summer Ridge Park,00963 Onsgard Crossing,R S,Gujarat,395003,India,2025-08-29T00:00:00.000Z,2025-08-29T00:00:00.000Z
293,8265 Packers Junction,9 Sunnyside Circle,Sadar Bazar,Uttar Pradesh,281002,India,2025-08-29T00:00:00.000Z,2025-08-29T00:00:00.000Z
294,878 Mesta Alley,90110 Reinke Street,Sadar Bazar,Uttar Pradesh,281002,India,2025-08-29T00:00:00.000Z,2025-08-29T00:00:00.000Z
295,5543 Browning Pass,268 Oneill Court,Agraharam,Andhra Pradesh,532663,India,2025-08-29T00:00:00.000Z,2025-08-29T00:00:00.000Z
296,999 Manitowish Way,7761 Brown Lane,Agraharam,Andhra Pradesh,532663,India,2025-08-29T00:00:00.000Z,2025-08-29T00:00:00.000Z
297,29 Eliot Circle,66 Troy Trail,R S,Gujarat,395003,India,2025-08-29T00:00:00.000Z,2025-08-29T00:00:00.000Z
298,84105 Heffernan Place,5 Russell Pass,Agraharam,Andhra Pradesh,532663,India,2025-08-29T00:00:00.000Z,2025-08-29T00:00:00.000Z
299,645 Acker Point,60326 Sachtjen Circle,Sadar Bazar,Uttar Pradesh,281002,India,2025-08-29T00:00:00.000Z,2025-08-29T00:00:00.000Z
300,241 Pennsylvania Center,2 6th Junction,R S,Gujarat,395003,India,2025-08-29T00:00:00.000Z,2025-08-29T00:00:00.000Z
301,708 Wayridge Circle,9834 Grim Drive,Sadar Bazar,Uttar Pradesh,281002,India,2025-08-29T00:00:00.000Z,2025-08-29T00:00:00.000Z
302,9051 Logan Center,656 Holmberg Parkway,R S,Gujarat,395003,India,2025-08-29T00:00:00.000Z,2025-08-29T00:00:00.000Z
303,66055 Bobwhite Plaza,8541 Mesta Parkway,Agraharam,Andhra Pradesh,532663,India,2025-08-29T00:00:00.000Z,2025-08-29T00:00:00.000Z
304,8 Ludington Alley,24 Onsgard Circle,Agraharam,Andhra Pradesh,532663,India,2025-08-29T00:00:00.000Z,2025-08-29T00:00:00.000Z
305,2 Burrows Trail,5637 Roxbury Crossing,R S,Gujarat,395003,India,2025-08-29T00:00:00.000Z,2025-08-29T00:00:00.000Z
306,7001 Granby Center,70826 Sugar Plaza,R S,Gujarat,395003,India,2025-08-29T00:00:00.000Z,2025-08-29T00:00:00.000Z
307,15 Cascade Circle,7937 Monterey Parkway,Agraharam,Andhra Pradesh,532663,India,2025-08-29T00:00:00.000Z,2025-08-29T00:00:00.000Z
308,696 Spaight Circle,6589 1st Plaza,Sadar Bazar,Uttar Pradesh,281002,India,2025-08-29T00:00:00.000Z,2025-08-29T00:00:00.000Z
309,61 Nancy Drive,274 Blaine Alley,R S,Gujarat,395003,India,2025-08-29T00:00:00.000Z,2025-08-29T00:00:00.000Z
310,391 Alpine Way,163 Kipling Terrace,R S,Gujarat,395003,India,2025-08-29T00:00:00.000Z,2025-08-29T00:00:00.000Z
311,836 Onsgard Point,9 Sloan Trail,Sadar Bazar,Uttar Pradesh,281002,India,2025-08-29T00:00:00.000Z,2025-08-29T00:00:00.000Z
312,016 Tennessee Way,18889 Dwight Court,Agraharam,Andhra Pradesh,532663,India,2025-08-29T00:00:00.000Z,2025-08-29T00:00:00.000Z
313,9 Commercial Plaza,64537 Nova Place,R S,Gujarat,395003,India,2025-08-29T00:00:00.000Z,2025-08-29T00:00:00.000Z
314,96585 Farwell Drive,02 Grasskamp Alley,R S,Gujarat,395003,India,2025-08-29T00:00:00.000Z,2025-08-29T00:00:00.000Z
315,134 Melby Terrace,4340 Carey Hill,R S,Gujarat,395003,India,2025-08-29T00:00:00.000Z,2025-08-29T00:00:00.000Z
316,455 Raven Alley,7908 Briar Crest Hill,Sadar Bazar,Uttar Pradesh,281002,India,2025-08-29T00:00:00.000Z,2025-08-29T00:00:00.000Z
317,81478 Grasskamp Drive,6 Menomonie Drive,R S,Gujarat,395003,India,2025-08-29T00:00:00.000Z,2025-08-29T00:00:00.000Z
318,19712 Sullivan Point,1 Debs Circle,R S,Gujarat,395003,India,2025-08-29T00:00:00.000Z,2025-08-29T00:00:00.000Z
319,78857 Karstens Point,0858 Warbler Center,Sadar Bazar,Uttar Pradesh,281002,India,2025-08-29T00:00:00.000Z,2025-08-29T00:00:00.000Z
320,9600 Derek Junction,276 Randy Avenue,Sadar Bazar,Uttar Pradesh,281002,India,2025-08-29T00:00:00.000Z,2025-08-29T00:00:00.000Z
321,64 Spaight Court,67330 Pleasure Road,Agraharam,Andhra Pradesh,532663,India,2025-08-29T00:00:00.000Z,2025-08-29T00:00:00.000Z
322,6 Mifflin Circle,3 Fieldstone Alley,Sadar Bazar,Uttar Pradesh,281002,India,2025-08-29T00:00:00.000Z,2025-08-29T00:00:00.000Z
323,4 Lunder Way,49143 Thierer Street,Sadar Bazar,Uttar Pradesh,281002,India,2025-08-29T00:00:00.000Z,2025-08-29T00:00:00.000Z
324,39 Namekagon Parkway,37102 Sage Alley,Agraharam,Andhra Pradesh,532663,India,2025-08-29T00:00:00.000Z,2025-08-29T00:00:00.000Z
325,8953 High Crossing Plaza,1498 Sunbrook Crossing,Sadar Bazar,Uttar Pradesh,281002,India,2025-08-29T00:00:00.000Z,2025-08-29T00:00:00.000Z
326,02902 Dayton Crossing,6 Melby Point,R S,Gujarat,395003,India,2025-08-29T00:00:00.000Z,2025-08-29T00:00:00.000Z
327,93 Anthes Street,0084 Comanche Road,R S,Gujarat,395003,India,2025-08-29T00:00:00.000Z,2025-08-29T00:00:00.000Z
328,8 Scoville Drive,006 Coolidge Pass,Sadar Bazar,Uttar Pradesh,281002,India,2025-08-29T00:00:00.000Z,2025-08-29T00:00:00.000Z
329,09609 Claremont Trail,8 Gulseth Pass,Agraharam,Andhra Pradesh,532663,India,2025-08-29T00:00:00.000Z,2025-08-29T00:00:00.000Z
330,21983 Mosinee Lane,7172 Randy Avenue,Sadar Bazar,Uttar Pradesh,281002,India,2025-08-29T00:00:00.000Z,2025-08-29T00:00:00.000Z
331,7 Crowley Hill,89857 Corben Street,Sadar Bazar,Uttar Pradesh,281002,India,2025-08-29T00:00:00.000Z,2025-08-29T00:00:00.000Z
332,102 Lakewood Trail,636 Merry Pass,Agraharam,Andhra Pradesh,532663,India,2025-08-29T00:00:00.000Z,2025-08-29T00:00:00.000Z
333,33 Dawn Parkway,19140 Bellgrove Hill,Agraharam,Andhra Pradesh,532663,India,2025-08-29T00:00:00.000Z,2025-08-29T00:00:00.000Z
334,8 4th Hill,508 American Hill,Sadar Bazar,Uttar Pradesh,281002,India,2025-08-29T00:00:00.000Z,2025-08-29T00:00:00.000Z
335,0 Burning Wood Junction,72083 David Junction,Sadar Bazar,Uttar Pradesh,281002,India,2025-08-29T00:00:00.000Z,2025-08-29T00:00:00.000Z
336,77 Kennedy Junction,9509 Schurz Point,Sadar Bazar,Uttar Pradesh,281002,India,2025-08-29T00:00:00.000Z,2025-08-29T00:00:00.000Z
337,025 Jana Terrace,50622 Macpherson Court,Agraharam,Andhra Pradesh,532663,India,2025-08-29T00:00:00.000Z,2025-08-29T00:00:00.000Z
338,0 Bay Place,1 Mendota Center,Sadar Bazar,Uttar Pradesh,281002,India,2025-08-29T00:00:00.000Z,2025-08-29T00:00:00.000Z
339,75410 Dawn Street,6448 Delaware Terrace,Sadar Bazar,Uttar Pradesh,281002,India,2025-08-29T00:00:00.000Z,2025-08-29T00:00:00.000Z
340,6 Killdeer Parkway,6246 Artisan Park,Agraharam,Andhra Pradesh,532663,India,2025-08-29T00:00:00.000Z,2025-08-29T00:00:00.000Z
341,1882 Bunting Street,7 Charing Cross Court,R S,Gujarat,395003,India,2025-08-29T00:00:00.000Z,2025-08-29T00:00:00.000Z
342,6 Bonner Park,2422 Duke Drive,R S,Gujarat,395003,India,2025-08-29T00:00:00.000Z,2025-08-29T00:00:00.000Z
343,1 Mccormick Terrace,1740 Sachtjen Parkway,Agraharam,Andhra Pradesh,532663,India,2025-08-29T00:00:00.000Z,2025-08-29T00:00:00.000Z
344,40572 Bultman Alley,6237 Esker Plaza,Agraharam,Andhra Pradesh,532663,India,2025-08-29T00:00:00.000Z,2025-08-29T00:00:00.000Z
345,84 Dapin Center,61573 Dovetail Crossing,R S,Gujarat,395003,India,2025-08-29T00:00:00.000Z,2025-08-29T00:00:00.000Z
346,32419 Oneill Junction,06002 Porter Court,Sadar Bazar,Uttar Pradesh,281002,India,2025-08-29T00:00:00.000Z,2025-08-29T00:00:00.000Z
347,8282 Eagle Crest Lane,3 Texas Street,R S,Gujarat,395003,India,2025-08-29T00:00:00.000Z,2025-08-29T00:00:00.000Z
348,14 Old Gate Pass,5636 Mesta Park,Agraharam,Andhra Pradesh,532663,India,2025-08-29T00:00:00.000Z,2025-08-29T00:00:00.000Z
349,7327 Spohn Plaza,738 Bunting Way,Agraharam,Andhra Pradesh,532663,India,2025-08-29T00:00:00.000Z,2025-08-29T00:00:00.000Z
350,6 Packers Street,402 Jana Court,Sadar Bazar,Uttar Pradesh,281002,India,2025-08-29T00:00:00.000Z,2025-08-29T00:00:00.000Z
351,12 Lyons Terrace,73 Commercial Trail,Agraharam,Andhra Pradesh,532663,India,2025-08-29T00:00:00.000Z,2025-08-29T00:00:00.000Z
352,11550 Sundown Avenue,27 Killdeer Hill,Sadar Bazar,Uttar Pradesh,281002,India,2025-08-29T00:00:00.000Z,2025-08-29T00:00:00.000Z
353,329 Sloan Court,7068 Red Cloud Plaza,R S,Gujarat,395003,India,2025-08-29T00:00:00.000Z,2025-08-29T00:00:00.000Z
354,945 Veith Point,12628 Oakridge Hill,Sadar Bazar,Uttar Pradesh,281002,India,2025-08-29T00:00:00.000Z,2025-08-29T00:00:00.000Z
355,57319 Northview Alley,14 Warbler Parkway,Sadar Bazar,Uttar Pradesh,281002,India,2025-08-29T00:00:00.000Z,2025-08-29T00:00:00.000Z
356,15 Lerdahl Park,17937 Pierstorff Park,R S,Gujarat,395003,India,2025-08-29T00:00:00.000Z,2025-08-29T00:00:00.000Z
357,6 Hollow Ridge Terrace,78 Michigan Junction,Sadar Bazar,Uttar Pradesh,281002,India,2025-08-29T00:00:00.000Z,2025-08-29T00:00:00.000Z
358,6089 Duke Point,20 Larry Trail,R S,Gujarat,395003,India,2025-08-29T00:00:00.000Z,2025-08-29T00:00:00.000Z
359,5 Walton Lane,5 Muir Park,Sadar Bazar,Uttar Pradesh,281002,India,2025-08-29T00:00:00.000Z,2025-08-29T00:00:00.000Z
360,65933 Katie Alley,0 Summit Way,R S,Gujarat,395003,India,2025-08-29T00:00:00.000Z,2025-08-29T00:00:00.000Z
361,21708 Beilfuss Parkway,09591 Dunning Drive,Sadar Bazar,Uttar Pradesh,281002,India,2025-08-29T00:00:00.000Z,2025-08-29T00:00:00.000Z
362,14 Meadow Valley Center,82629 Dottie Park,Sadar Bazar,Uttar Pradesh,281002,India,2025-08-29T00:00:00.000Z,2025-08-29T00:00:00.000Z
363,08 Pine View Junction,28 Cascade Avenue,R S,Gujarat,395003,India,2025-08-29T00:00:00.000Z,2025-08-29T00:00:00.000Z
364,892 Granby Street,4 Menomonie Terrace,Sadar Bazar,Uttar Pradesh,281002,India,2025-08-29T00:00:00.000Z,2025-08-29T00:00:00.000Z
365,90 Carioca Road,98 Lighthouse Bay Alley,Agraharam,Andhra Pradesh,532663,India,2025-08-29T00:00:00.000Z,2025-08-29T00:00:00.000Z
366,13 Bunting Parkway,1313 Sunnyside Park,R S,Gujarat,395003,India,2025-08-29T00:00:00.000Z,2025-08-29T00:00:00.000Z
367,69380 Holmberg Parkway,6797 Dwight Place,Sadar Bazar,Uttar Pradesh,281002,India,2025-08-29T00:00:00.000Z,2025-08-29T00:00:00.000Z
368,09 Northview Park,577 Clyde Gallagher Trail,R S,Gujarat,395003,India,2025-08-29T00:00:00.000Z,2025-08-29T00:00:00.000Z
369,75633 Hallows Avenue,125 Mallard Center,Sadar Bazar,Uttar Pradesh,281002,India,2025-08-29T00:00:00.000Z,2025-08-29T00:00:00.000Z
370,10695 Chive Trail,2799 Artisan Circle,R S,Gujarat,395003,India,2025-08-29T00:00:00.000Z,2025-08-29T00:00:00.000Z
371,732 Graceland Road,9 Vahlen Road,Sadar Bazar,Uttar Pradesh,281002,India,2025-08-29T00:00:00.000Z,2025-08-29T00:00:00.000Z
372,29 Esch Place,9 Stang Drive,Sadar Bazar,Uttar Pradesh,281002,India,2025-08-29T00:00:00.000Z,2025-08-29T00:00:00.000Z
373,1 West Junction,39438 Cascade Court,Agraharam,Andhra Pradesh,532663,India,2025-08-29T00:00:00.000Z,2025-08-29T00:00:00.000Z
374,770 Oriole Terrace,97908 Prentice Junction,Sadar Bazar,Uttar Pradesh,281002,India,2025-08-29T00:00:00.000Z,2025-08-29T00:00:00.000Z
375,80660 American Ash Point,17 Crownhardt Pass,R S,Gujarat,395003,India,2025-08-29T00:00:00.000Z,2025-08-29T00:00:00.000Z
376,6 Declaration Plaza,3538 Northfield Parkway,Sadar Bazar,Uttar Pradesh,281002,India,2025-08-29T00:00:00.000Z,2025-08-29T00:00:00.000Z
377,41 Dixon Circle,28506 Drewry Terrace,Sadar Bazar,Uttar Pradesh,281002,India,2025-08-29T00:00:00.000Z,2025-08-29T00:00:00.000Z
378,3 Brentwood Center,35 Susan Way,Agraharam,Andhra Pradesh,532663,India,2025-08-29T00:00:00.000Z,2025-08-29T00:00:00.000Z
379,3430 Spaight Street,28 Homewood Plaza,Agraharam,Andhra Pradesh,532663,India,2025-08-29T00:00:00.000Z,2025-08-29T00:00:00.000Z
380,096 Utah Place,0 Macpherson Point,Sadar Bazar,Uttar Pradesh,281002,India,2025-08-29T00:00:00.000Z,2025-08-29T00:00:00.000Z
381,6196 Corscot Hill,28798 Jay Circle,R S,Gujarat,395003,India,2025-08-29T00:00:00.000Z,2025-08-29T00:00:00.000Z
382,22139 Katie Plaza,691 Bashford Circle,Sadar Bazar,Uttar Pradesh,281002,India,2025-08-29T00:00:00.000Z,2025-08-29T00:00:00.000Z
383,3 Birchwood Point,9424 Brown Crossing,Agraharam,Andhra Pradesh,532663,India,2025-08-29T00:00:00.000Z,2025-08-29T00:00:00.000Z
384,25774 Anthes Drive,520 Hermina Avenue,Sadar Bazar,Uttar Pradesh,281002,India,2025-08-29T00:00:00.000Z,2025-08-29T00:00:00.000Z
385,1 Tomscot Road,397 Trailsway Place,R S,Gujarat,395003,India,2025-08-29T00:00:00.000Z,2025-08-29T00:00:00.000Z
386,11 Logan Plaza,54 Duke Trail,Sadar Bazar,Uttar Pradesh,281002,India,2025-08-29T00:00:00.000Z,2025-08-29T00:00:00.000Z
387,642 Springview Pass,9895 Sloan Circle,Agraharam,Andhra Pradesh,532663,India,2025-08-29T00:00:00.000Z,2025-08-29T00:00:00.000Z
388,202 Holy Cross Lane,56 Canary Court,Sadar Bazar,Uttar Pradesh,281002,India,2025-08-29T00:00:00.000Z,2025-08-29T00:00:00.000Z
389,57244 Monument Terrace,8259 Northland Plaza,R S,Gujarat,395003,India,2025-08-29T00:00:00.000Z,2025-08-29T00:00:00.000Z
390,2425 Hanover Circle,616 Kenwood Drive,Agraharam,Andhra Pradesh,532663,India,2025-08-29T00:00:00.000Z,2025-08-29T00:00:00.000Z
391,1 Dapin Hill,040 Namekagon Way,Agraharam,Andhra Pradesh,532663,India,2025-08-29T00:00:00.000Z,2025-08-29T00:00:00.000Z
392,648 Oak Hill,36 Dapin Avenue,R S,Gujarat,395003,India,2025-08-29T00:00:00.000Z,2025-08-29T00:00:00.000Z
393,63782 Pond Place,38030 Melby Way,Sadar Bazar,Uttar Pradesh,281002,India,2025-08-29T00:00:00.000Z,2025-08-29T00:00:00.000Z
394,9 Algoma Trail,3768 South Plaza,Agraharam,Andhra Pradesh,532663,India,2025-08-29T00:00:00.000Z,2025-08-29T00:00:00.000Z
395,83 Washington Plaza,017 Farragut Alley,Agraharam,Andhra Pradesh,532663,India,2025-08-29T00:00:00.000Z,2025-08-29T00:00:00.000Z
396,12 Derek Trail,56442 Express Street,R S,Gujarat,395003,India,2025-08-29T00:00:00.000Z,2025-08-29T00:00:00.000Z
397,697 Jay Avenue,5184 Londonderry Alley,Agraharam,Andhra Pradesh,532663,India,2025-08-29T00:00:00.000Z,2025-08-29T00:00:00.000Z
398,2554 Forest Dale Terrace,7301 Crest Line Crossing,Agraharam,Andhra Pradesh,532663,India,2025-08-29T00:00:00.000Z,2025-08-29T00:00:00.000Z
399,38 Stang Drive,80367 Elka Alley,Sadar Bazar,Uttar Pradesh,281002,India,2025-08-29T00:00:00.000Z,2025-08-29T00:00:00.000Z
400,37887 Moland Alley,42689 Monica Crossing,Agraharam,Andhra Pradesh,532663,India,2025-08-29T00:00:00.000Z,2025-08-29T00:00:00.000Z
401,8 Lerdahl Junction,2 Dahle Terrace,R S,Gujarat,395003,India,2025-08-29T00:00:00.000Z,2025-08-29T00:00:00.000Z
402,46367 Muir Parkway,53 Holmberg Center,Agraharam,Andhra Pradesh,532663,India,2025-08-29T00:00:00.000Z,2025-08-29T00:00:00.000Z
403,02 Wayridge Road,7 Melrose Drive,R S,Gujarat,395003,India,2025-08-29T00:00:00.000Z,2025-08-29T00:00:00.000Z
404,63647 Stephen Hill,165 Union Hill,Sadar Bazar,Uttar Pradesh,281002,India,2025-08-29T00:00:00.000Z,2025-08-29T00:00:00.000Z
405,81 Bluejay Road,0329 Cardinal Road,Agraharam,Andhra Pradesh,532663,India,2025-08-29T00:00:00.000Z,2025-08-29T00:00:00.000Z
406,597 Forest Run Pass,94 Springview Court,Agraharam,Andhra Pradesh,532663,India,2025-08-29T00:00:00.000Z,2025-08-29T00:00:00.000Z
407,203 Walton Pass,866 Kensington Place,Sadar Bazar,Uttar Pradesh,281002,India,2025-08-29T00:00:00.000Z,2025-08-29T00:00:00.000Z
408,4768 Heffernan Lane,51 Goodland Alley,Agraharam,Andhra Pradesh,532663,India,2025-08-29T00:00:00.000Z,2025-08-29T00:00:00.000Z
409,38236 Novick Court,44 Messerschmidt Parkway,Sadar Bazar,Uttar Pradesh,281002,India,2025-08-29T00:00:00.000Z,2025-08-29T00:00:00.000Z
410,30 Bartelt Street,16584 Superior Way,R S,Gujarat,395003,India,2025-08-29T00:00:00.000Z,2025-08-29T00:00:00.000Z
411,102 Randy Center,7512 Portage Point,Agraharam,Andhra Pradesh,532663,India,2025-08-29T00:00:00.000Z,2025-08-29T00:00:00.000Z
412,6237 Cambridge Trail,21 American Ash Lane,Agraharam,Andhra Pradesh,532663,India,2025-08-29T00:00:00.000Z,2025-08-29T00:00:00.000Z
413,68 Onsgard Place,9 2nd Place,Agraharam,Andhra Pradesh,532663,India,2025-08-29T00:00:00.000Z,2025-08-29T00:00:00.000Z
414,189 Longview Court,011 Kingsford Lane,Sadar Bazar,Uttar Pradesh,281002,India,2025-08-29T00:00:00.000Z,2025-08-29T00:00:00.000Z
415,60 Spaight Road,25276 Summer Ridge Center,R S,Gujarat,395003,India,2025-08-29T00:00:00.000Z,2025-08-29T00:00:00.000Z
416,923 Atwood Drive,89741 Burning Wood Center,Sadar Bazar,Uttar Pradesh,281002,India,2025-08-29T00:00:00.000Z,2025-08-29T00:00:00.000Z
417,16327 3rd Center,432 Ridgeview Alley,Agraharam,Andhra Pradesh,532663,India,2025-08-29T00:00:00.000Z,2025-08-29T00:00:00.000Z
418,47776 Schiller Trail,201 Melvin Parkway,Sadar Bazar,Uttar Pradesh,281002,India,2025-08-29T00:00:00.000Z,2025-08-29T00:00:00.000Z
419,81089 Fordem Trail,9 Cherokee Court,Agraharam,Andhra Pradesh,532663,India,2025-08-29T00:00:00.000Z,2025-08-29T00:00:00.000Z
420,5896 Thackeray Center,641 Bowman Street,Agraharam,Andhra Pradesh,532663,India,2025-08-29T00:00:00.000Z,2025-08-29T00:00:00.000Z
421,3 Lunder Center,05757 Fordem Terrace,Sadar Bazar,Uttar Pradesh,281002,India,2025-08-29T00:00:00.000Z,2025-08-29T00:00:00.000Z
422,781 Macpherson Circle,50986 Ronald Regan Hill,Sadar Bazar,Uttar Pradesh,281002,India,2025-08-29T00:00:00.000Z,2025-08-29T00:00:00.000Z
423,5 Manufacturers Junction,20 Green Park,Agraharam,Andhra Pradesh,532663,India,2025-08-29T00:00:00.000Z,2025-08-29T00:00:00.000Z
424,99 Magdeline Hill,7118 Atwood Hill,Agraharam,Andhra Pradesh,532663,India,2025-08-29T00:00:00.000Z,2025-08-29T00:00:00.000Z
425,6 Dennis Crossing,8586 Erie Terrace,Agraharam,Andhra Pradesh,532663,India,2025-08-29T00:00:00.000Z,2025-08-29T00:00:00.000Z
426,6 Troy Road,57 Lukken Pass,Agraharam,Andhra Pradesh,532663,India,2025-08-29T00:00:00.000Z,2025-08-29T00:00:00.000Z
427,90025 Roxbury Avenue,294 Troy Parkway,R S,Gujarat,395003,India,2025-08-29T00:00:00.000Z,2025-08-29T00:00:00.000Z
428,25175 Comanche Alley,0 Arkansas Pass,Agraharam,Andhra Pradesh,532663,India,2025-08-29T00:00:00.000Z,2025-08-29T00:00:00.000Z
429,717 Kipling Trail,59481 Magdeline Point,Sadar Bazar,Uttar Pradesh,281002,India,2025-08-29T00:00:00.000Z,2025-08-29T00:00:00.000Z
430,92629 Bashford Terrace,260 Carberry Lane,Agraharam,Andhra Pradesh,532663,India,2025-08-29T00:00:00.000Z,2025-08-29T00:00:00.000Z
431,289 Merry Lane,59182 Oakridge Hill,Agraharam,Andhra Pradesh,532663,India,2025-08-29T00:00:00.000Z,2025-08-29T00:00:00.000Z
432,77 Continental Place,51 Continental Place,Sadar Bazar,Uttar Pradesh,281002,India,2025-08-29T00:00:00.000Z,2025-08-29T00:00:00.000Z
433,40 Debra Junction,32 Buell Avenue,Sadar Bazar,Uttar Pradesh,281002,India,2025-08-29T00:00:00.000Z,2025-08-29T00:00:00.000Z
434,26026 Northport Pass,57 Gulseth Center,R S,Gujarat,395003,India,2025-08-29T00:00:00.000Z,2025-08-29T00:00:00.000Z
435,33 Ludington Pass,69532 Pennsylvania Park,Agraharam,Andhra Pradesh,532663,India,2025-08-29T00:00:00.000Z,2025-08-29T00:00:00.000Z
436,2 Toban Place,5553 Mandrake Pass,Agraharam,Andhra Pradesh,532663,India,2025-08-29T00:00:00.000Z,2025-08-29T00:00:00.000Z
437,71 Hovde Way,22 Grayhawk Plaza,Agraharam,Andhra Pradesh,532663,India,2025-08-29T00:00:00.000Z,2025-08-29T00:00:00.000Z
438,525 Mayfield Point,9 Surrey Pass,Agraharam,Andhra Pradesh,532663,India,2025-08-29T00:00:00.000Z,2025-08-29T00:00:00.000Z
439,76744 Brown Circle,74 Rieder Street,Agraharam,Andhra Pradesh,532663,India,2025-08-29T00:00:00.000Z,2025-08-29T00:00:00.000Z
440,06 Lien Point,65412 Luster Park,Agraharam,Andhra Pradesh,532663,India,2025-08-29T00:00:00.000Z,2025-08-29T00:00:00.000Z
441,3 Troy Hill,451 Hauk Drive,Sadar Bazar,Uttar Pradesh,281002,India,2025-08-29T00:00:00.000Z,2025-08-29T00:00:00.000Z
442,3 Spenser Terrace,8 Elmside Way,R S,Gujarat,395003,India,2025-08-29T00:00:00.000Z,2025-08-29T00:00:00.000Z
443,6274 Rowland Crossing,3994 Hooker Circle,R S,Gujarat,395003,India,2025-08-29T00:00:00.000Z,2025-08-29T00:00:00.000Z
444,41 Westend Terrace,19 Saint Paul Street,R S,Gujarat,395003,India,2025-08-29T00:00:00.000Z,2025-08-29T00:00:00.000Z
445,491 Chinook Pass,8487 Mitchell Alley,Agraharam,Andhra Pradesh,532663,India,2025-08-29T00:00:00.000Z,2025-08-29T00:00:00.000Z
446,2 Gerald Parkway,1398 Anthes Place,Agraharam,Andhra Pradesh,532663,India,2025-08-29T00:00:00.000Z,2025-08-29T00:00:00.000Z
447,04382 Ronald Regan Street,23 Esker Terrace,Agraharam,Andhra Pradesh,532663,India,2025-08-29T00:00:00.000Z,2025-08-29T00:00:00.000Z
448,0310 Mallard Alley,417 5th Point,Sadar Bazar,Uttar Pradesh,281002,India,2025-08-29T00:00:00.000Z,2025-08-29T00:00:00.000Z
449,57 Esch Lane,9356 Esch Crossing,Agraharam,Andhra Pradesh,532663,India,2025-08-29T00:00:00.000Z,2025-08-29T00:00:00.000Z
450,578 2nd Way,10334 Hudson Alley,R S,Gujarat,395003,India,2025-08-29T00:00:00.000Z,2025-08-29T00:00:00.000Z
451,1327 Acker Pass,99 Caliangt Crossing,Sadar Bazar,Uttar Pradesh,281002,India,2025-08-29T00:00:00.000Z,2025-08-29T00:00:00.000Z
452,70 Knutson Center,38693 Oneill Place,Sadar Bazar,Uttar Pradesh,281002,India,2025-08-29T00:00:00.000Z,2025-08-29T00:00:00.000Z
453,3 Knutson Circle,4168 Grover Avenue,Sadar Bazar,Uttar Pradesh,281002,India,2025-08-29T00:00:00.000Z,2025-08-29T00:00:00.000Z
454,96266 Crowley Park,457 Donald Junction,Sadar Bazar,Uttar Pradesh,281002,India,2025-08-29T00:00:00.000Z,2025-08-29T00:00:00.000Z
455,156 Mccormick Street,543 Delladonna Way,Sadar Bazar,Uttar Pradesh,281002,India,2025-08-29T00:00:00.000Z,2025-08-29T00:00:00.000Z
456,4246 Pierstorff Circle,8993 Corben Parkway,Agraharam,Andhra Pradesh,532663,India,2025-08-29T00:00:00.000Z,2025-08-29T00:00:00.000Z
457,5328 Bobwhite Drive,935 Artisan Trail,R S,Gujarat,395003,India,2025-08-29T00:00:00.000Z,2025-08-29T00:00:00.000Z
458,18130 Commercial Drive,761 Union Plaza,R S,Gujarat,395003,India,2025-08-29T00:00:00.000Z,2025-08-29T00:00:00.000Z
459,6081 Carioca Road,7 Boyd Parkway,Agraharam,Andhra Pradesh,532663,India,2025-08-29T00:00:00.000Z,2025-08-29T00:00:00.000Z
460,7 Delladonna Crossing,939 Melby Drive,Sadar Bazar,Uttar Pradesh,281002,India,2025-08-29T00:00:00.000Z,2025-08-29T00:00:00.000Z
461,611 Bobwhite Alley,16 2nd Junction,Sadar Bazar,Uttar Pradesh,281002,India,2025-08-29T00:00:00.000Z,2025-08-29T00:00:00.000Z
462,2715 Moland Junction,4 Amoth Drive,Sadar Bazar,Uttar Pradesh,281002,India,2025-08-29T00:00:00.000Z,2025-08-29T00:00:00.000Z
463,08700 Kipling Alley,6011 Marquette Avenue,Agraharam,Andhra Pradesh,532663,India,2025-08-29T00:00:00.000Z,2025-08-29T00:00:00.000Z
464,3 Wayridge Street,48479 Duke Parkway,Agraharam,Andhra Pradesh,532663,India,2025-08-29T00:00:00.000Z,2025-08-29T00:00:00.000Z
465,81 Mayer Place,1 Park Meadow Lane,Sadar Bazar,Uttar Pradesh,281002,India,2025-08-29T00:00:00.000Z,2025-08-29T00:00:00.000Z
466,3589 Grover Center,71473 Mayfield Parkway,R S,Gujarat,395003,India,2025-08-29T00:00:00.000Z,2025-08-29T00:00:00.000Z
467,11241 Lotheville Pass,06124 Graedel Court,Sadar Bazar,Uttar Pradesh,281002,India,2025-08-29T00:00:00.000Z,2025-08-29T00:00:00.000Z
468,548 Forster Circle,75867 Ludington Parkway,Agraharam,Andhra Pradesh,532663,India,2025-08-29T00:00:00.000Z,2025-08-29T00:00:00.000Z
469,15 Magdeline Road,744 Raven Pass,Sadar Bazar,Uttar Pradesh,281002,India,2025-08-29T00:00:00.000Z,2025-08-29T00:00:00.000Z
470,8303 Esker Avenue,0 5th Parkway,Agraharam,Andhra Pradesh,532663,India,2025-08-29T00:00:00.000Z,2025-08-29T00:00:00.000Z
471,35 Pennsylvania Park,26643 Lerdahl Hill,Agraharam,Andhra Pradesh,532663,India,2025-08-29T00:00:00.000Z,2025-08-29T00:00:00.000Z
472,60234 Lawn Trail,6 Jenna Crossing,Sadar Bazar,Uttar Pradesh,281002,India,2025-08-29T00:00:00.000Z,2025-08-29T00:00:00.000Z
473,888 Lakewood Gardens Street,830 Bultman Pass,R S,Gujarat,395003,India,2025-08-29T00:00:00.000Z,2025-08-29T00:00:00.000Z
474,9 Heath Alley,8 Garrison Parkway,Agraharam,Andhra Pradesh,532663,India,2025-08-29T00:00:00.000Z,2025-08-29T00:00:00.000Z
475,632 Cambridge Place,811 Talisman Avenue,Sadar Bazar,Uttar Pradesh,281002,India,2025-08-29T00:00:00.000Z,2025-08-29T00:00:00.000Z
476,4 Pond Center,2 Ridgeway Pass,Agraharam,Andhra Pradesh,532663,India,2025-08-29T00:00:00.000Z,2025-08-29T00:00:00.000Z
477,49 Kings Junction,13123 Elka Trail,Sadar Bazar,Uttar Pradesh,281002,India,2025-08-29T00:00:00.000Z,2025-08-29T00:00:00.000Z
478,6 Cordelia Point,77010 Coleman Terrace,R S,Gujarat,395003,India,2025-08-29T00:00:00.000Z,2025-08-29T00:00:00.000Z
479,60 Brentwood Place,854 5th Lane,Sadar Bazar,Uttar Pradesh,281002,India,2025-08-29T00:00:00.000Z,2025-08-29T00:00:00.000Z
480,9 Pine View Point,78 Utah Avenue,R S,Gujarat,395003,India,2025-08-29T00:00:00.000Z,2025-08-29T00:00:00.000Z
481,223 Pond Terrace,87241 Sunnyside Pass,Agraharam,Andhra Pradesh,532663,India,2025-08-29T00:00:00.000Z,2025-08-29T00:00:00.000Z
482,1875 Merry Center,65 Ridge Oak Junction,Agraharam,Andhra Pradesh,532663,India,2025-08-29T00:00:00.000Z,2025-08-29T00:00:00.000Z
483,4973 Glendale Hill,403 Brickson Park Center,R S,Gujarat,395003,India,2025-08-29T00:00:00.000Z,2025-08-29T00:00:00.000Z
484,45771 High Crossing Point,44275 Twin Pines Crossing,R S,Gujarat,395003,India,2025-08-29T00:00:00.000Z,2025-08-29T00:00:00.000Z
485,3150 Ramsey Point,385 Bunting Circle,Sadar Bazar,Uttar Pradesh,281002,India,2025-08-29T00:00:00.000Z,2025-08-29T00:00:00.000Z
486,25 Hazelcrest Hill,057 Mccormick Crossing,R S,Gujarat,395003,India,2025-08-29T00:00:00.000Z,2025-08-29T00:00:00.000Z
487,12 Dwight Plaza,210 Lillian Hill,Agraharam,Andhra Pradesh,532663,India,2025-08-29T00:00:00.000Z,2025-08-29T00:00:00.000Z
488,16215 Schiller Street,1 Beilfuss Pass,R S,Gujarat,395003,India,2025-08-29T00:00:00.000Z,2025-08-29T00:00:00.000Z
489,8068 Eastwood Crossing,3176 Mitchell Alley,Agraharam,Andhra Pradesh,532663,India,2025-08-29T00:00:00.000Z,2025-08-29T00:00:00.000Z
490,3 Hayes Center,85378 Walton Parkway,Sadar Bazar,Uttar Pradesh,281002,India,2025-08-29T00:00:00.000Z,2025-08-29T00:00:00.000Z
491,3333 8th Street,615 Loomis Parkway,Agraharam,Andhra Pradesh,532663,India,2025-08-29T00:00:00.000Z,2025-08-29T00:00:00.000Z
492,2383 Schurz Hill,9 Michigan Plaza,Agraharam,Andhra Pradesh,532663,India,2025-08-29T00:00:00.000Z,2025-08-29T00:00:00.000Z
493,116 Mifflin Alley,6 Scott Trail,R S,Gujarat,395003,India,2025-08-29T00:00:00.000Z,2025-08-29T00:00:00.000Z
494,6 Buena Vista Crossing,85 Sloan Way,Agraharam,Andhra Pradesh,532663,India,2025-08-29T00:00:00.000Z,2025-08-29T00:00:00.000Z
495,13 Pleasure Place,4808 Mesta Avenue,Agraharam,Andhra Pradesh,532663,India,2025-08-29T00:00:00.000Z,2025-08-29T00:00:00.000Z
496,168 Pepper Wood Center,88 Claremont Park,Agraharam,Andhra Pradesh,532663,India,2025-08-29T00:00:00.000Z,2025-08-29T00:00:00.000Z
497,935 Bluestem Avenue,71 Scofield Hill,R S,Gujarat,395003,India,2025-08-29T00:00:00.000Z,2025-08-29T00:00:00.000Z
498,975 Graedel Place,88 Hazelcrest Center,R S,Gujarat,395003,India,2025-08-29T00:00:00.000Z,2025-08-29T00:00:00.000Z
499,657 Eggendart Alley,952 Forest Drive,Sadar Bazar,Uttar Pradesh,281002,India,2025-08-29T00:00:00.000Z,2025-08-29T00:00:00.000Z
500,4582 Sachtjen Avenue,64 Charing Cross Parkway,Agraharam,Andhra Pradesh,532663,India,2025-08-29T00:00:00.000Z,2025-08-29T00:00:00.000Z
501,0039 Luster Place,22147 Tony Parkway,Agraharam,Andhra Pradesh,532663,India,2025-08-29T00:00:00.000Z,2025-08-29T00:00:00.000Z
502,66 Kipling Pass,6953 Northland Street,R S,Gujarat,395003,India,2025-08-29T00:00:00.000Z,2025-08-29T00:00:00.000Z
503,1 Crescent Oaks Hill,696 Norway Maple Hill,R S,Gujarat,395003,India,2025-08-29T00:00:00.000Z,2025-08-29T00:00:00.000Z
504,61639 Holmberg Place,33 Pawling Circle,Sadar Bazar,Uttar Pradesh,281002,India,2025-08-29T00:00:00.000Z,2025-08-29T00:00:00.000Z
505,3 Ridgeview Court,97229 Sunnyside Alley,R S,Gujarat,395003,India,2025-08-29T00:00:00.000Z,2025-08-29T00:00:00.000Z
506,91 Bluestem Pass,58193 Pepper Wood Terrace,Sadar Bazar,Uttar Pradesh,281002,India,2025-08-29T00:00:00.000Z,2025-08-29T00:00:00.000Z
507,42541 Claremont Avenue,70 Beilfuss Plaza,Sadar Bazar,Uttar Pradesh,281002,India,2025-08-29T00:00:00.000Z,2025-08-29T00:00:00.000Z
508,74 Alpine Avenue,08 Stone Corner Drive,Sadar Bazar,Uttar Pradesh,281002,India,2025-08-29T00:00:00.000Z,2025-08-29T00:00:00.000Z
509,45 Transport Circle,45 Montana Park,R S,Gujarat,395003,India,2025-08-29T00:00:00.000Z,2025-08-29T00:00:00.000Z
510,09965 Becker Place,7 Laurel Junction,R S,Gujarat,395003,India,2025-08-29T00:00:00.000Z,2025-08-29T00:00:00.000Z
511,581 Myrtle Trail,96 Harbort Street,R S,Gujarat,395003,India,2025-08-29T00:00:00.000Z,2025-08-29T00:00:00.000Z
512,5 Lerdahl Parkway,86065 Del Sol Place,Agraharam,Andhra Pradesh,532663,India,2025-08-29T00:00:00.000Z,2025-08-29T00:00:00.000Z
513,0863 Manufacturers Lane,8 Veith Crossing,Agraharam,Andhra Pradesh,532663,India,2025-08-29T00:00:00.000Z,2025-08-29T00:00:00.000Z
514,0294 Algoma Circle,8 Forster Road,Agraharam,Andhra Pradesh,532663,India,2025-08-29T00:00:00.000Z,2025-08-29T00:00:00.000Z
515,3 Mosinee Trail,6 Bultman Drive,Sadar Bazar,Uttar Pradesh,281002,India,2025-08-29T00:00:00.000Z,2025-08-29T00:00:00.000Z
516,0638 Memorial Parkway,643 Melby Hill,Sadar Bazar,Uttar Pradesh,281002,India,2025-08-29T00:00:00.000Z,2025-08-29T00:00:00.000Z
517,1 John Wall Alley,9194 Valley Edge Lane,Sadar Bazar,Uttar Pradesh,281002,India,2025-08-29T00:00:00.000Z,2025-08-29T00:00:00.000Z
518,704 Shasta Plaza,58751 Arapahoe Trail,Sadar Bazar,Uttar Pradesh,281002,India,2025-08-29T00:00:00.000Z,2025-08-29T00:00:00.000Z
519,5 Division Alley,65 Sunnyside Street,Agraharam,Andhra Pradesh,532663,India,2025-08-29T00:00:00.000Z,2025-08-29T00:00:00.000Z
520,708 Sheridan Place,185 Brickson Park Plaza,Agraharam,Andhra Pradesh,532663,India,2025-08-29T00:00:00.000Z,2025-08-29T00:00:00.000Z
521,3237 Pleasure Parkway,5 Forest Run Park,Agraharam,Andhra Pradesh,532663,India,2025-08-29T00:00:00.000Z,2025-08-29T00:00:00.000Z
522,5 Almo Circle,81939 Mesta Place,R S,Gujarat,395003,India,2025-08-29T00:00:00.000Z,2025-08-29T00:00:00.000Z
523,70 Old Gate Plaza,6489 Novick Center,Sadar Bazar,Uttar Pradesh,281002,India,2025-08-29T00:00:00.000Z,2025-08-29T00:00:00.000Z
524,4895 Hayes Lane,29 Swallow Point,R S,Gujarat,395003,India,2025-08-29T00:00:00.000Z,2025-08-29T00:00:00.000Z
525,43741 Golf Crossing,9984 Stuart Hill,R S,Gujarat,395003,India,2025-08-29T00:00:00.000Z,2025-08-29T00:00:00.000Z
526,54 High Crossing Circle,7 Dorton Avenue,Sadar Bazar,Uttar Pradesh,281002,India,2025-08-29T00:00:00.000Z,2025-08-29T00:00:00.000Z
527,66009 Mockingbird Parkway,43716 Pawling Circle,R S,Gujarat,395003,India,2025-08-29T00:00:00.000Z,2025-08-29T00:00:00.000Z
528,05814 Miller Center,45275 Sutteridge Drive,R S,Gujarat,395003,India,2025-08-29T00:00:00.000Z,2025-08-29T00:00:00.000Z
529,24 Autumn Leaf Park,9 Bultman Hill,Agraharam,Andhra Pradesh,532663,India,2025-08-29T00:00:00.000Z,2025-08-29T00:00:00.000Z
530,1 4th Avenue,27 Erie Pass,Sadar Bazar,Uttar Pradesh,281002,India,2025-08-29T00:00:00.000Z,2025-08-29T00:00:00.000Z
531,523 Stuart Avenue,353 Brown Trail,R S,Gujarat,395003,India,2025-08-29T00:00:00.000Z,2025-08-29T00:00:00.000Z
532,2 Kinsman Avenue,11052 Northport Street,Agraharam,Andhra Pradesh,532663,India,2025-08-29T00:00:00.000Z,2025-08-29T00:00:00.000Z
533,1 Novick Place,6269 Logan Circle,Agraharam,Andhra Pradesh,532663,India,2025-08-29T00:00:00.000Z,2025-08-29T00:00:00.000Z
534,9972 Lillian Pass,6881 Manitowish Hill,Sadar Bazar,Uttar Pradesh,281002,India,2025-08-29T00:00:00.000Z,2025-08-29T00:00:00.000Z
535,29758 Coolidge Place,23 Stone Corner Way,Sadar Bazar,Uttar Pradesh,281002,India,2025-08-29T00:00:00.000Z,2025-08-29T00:00:00.000Z
536,360 Stoughton Lane,899 Barby Place,Agraharam,Andhra Pradesh,532663,India,2025-08-29T00:00:00.000Z,2025-08-29T00:00:00.000Z
537,63254 Canary Way,95785 Dayton Plaza,Agraharam,Andhra Pradesh,532663,India,2025-08-29T00:00:00.000Z,2025-08-29T00:00:00.000Z
538,827 Everett Avenue,22 Kipling Crossing,Agraharam,Andhra Pradesh,532663,India,2025-08-29T00:00:00.000Z,2025-08-29T00:00:00.000Z
539,5808 Starling Hill,2322 Sauthoff Drive,Agraharam,Andhra Pradesh,532663,India,2025-08-29T00:00:00.000Z,2025-08-29T00:00:00.000Z
540,247 Towne Terrace,40277 Killdeer Way,Agraharam,Andhra Pradesh,532663,India,2025-08-29T00:00:00.000Z,2025-08-29T00:00:00.000Z
541,275 Dryden Court,97141 Sundown Crossing,R S,Gujarat,395003,India,2025-08-29T00:00:00.000Z,2025-08-29T00:00:00.000Z
542,0885 Mallory Avenue,11 Mallory Pass,Sadar Bazar,Uttar Pradesh,281002,India,2025-08-29T00:00:00.000Z,2025-08-29T00:00:00.000Z
543,19502 Sherman Terrace,12 Village Avenue,Agraharam,Andhra Pradesh,532663,India,2025-08-29T00:00:00.000Z,2025-08-29T00:00:00.000Z
544,09 Brown Drive,814 Rusk Place,Agraharam,Andhra Pradesh,532663,India,2025-08-29T00:00:00.000Z,2025-08-29T00:00:00.000Z
545,53416 Sunnyside Way,914 Mesta Pass,Sadar Bazar,Uttar Pradesh,281002,India,2025-08-29T00:00:00.000Z,2025-08-29T00:00:00.000Z
546,11384 Scofield Circle,5 Charing Cross Junction,Sadar Bazar,Uttar Pradesh,281002,India,2025-08-29T00:00:00.000Z,2025-08-29T00:00:00.000Z
547,758 Superior Park,19 Green Ridge Junction,Agraharam,Andhra Pradesh,532663,India,2025-08-29T00:00:00.000Z,2025-08-29T00:00:00.000Z
548,9 Michigan Place,53 Farmco Drive,Agraharam,Andhra Pradesh,532663,India,2025-08-29T00:00:00.000Z,2025-08-29T00:00:00.000Z
549,9 Larry Crossing,57 Golf Course Point,Sadar Bazar,Uttar Pradesh,281002,India,2025-08-29T00:00:00.000Z,2025-08-29T00:00:00.000Z
550,7077 Rowland Circle,21 Jenna Center,Agraharam,Andhra Pradesh,532663,India,2025-08-29T00:00:00.000Z,2025-08-29T00:00:00.000Z
551,9473 Green Way,2 Myrtle Trail,R S,Gujarat,395003,India,2025-08-29T00:00:00.000Z,2025-08-29T00:00:00.000Z
552,8 Westridge Plaza,762 Miller Street,R S,Gujarat,395003,India,2025-08-29T00:00:00.000Z,2025-08-29T00:00:00.000Z
553,9860 Merrick Park,1674 Monument Avenue,Agraharam,Andhra Pradesh,532663,India,2025-08-29T00:00:00.000Z,2025-08-29T00:00:00.000Z
554,0 Ramsey Point,1553 Monica Avenue,Agraharam,Andhra Pradesh,532663,India,2025-08-29T00:00:00.000Z,2025-08-29T00:00:00.000Z
555,941 Haas Way,8 Maple Wood Terrace,Agraharam,Andhra Pradesh,532663,India,2025-08-29T00:00:00.000Z,2025-08-29T00:00:00.000Z
556,76455 Burrows Trail,1804 Toban Junction,Sadar Bazar,Uttar Pradesh,281002,India,2025-08-29T00:00:00.000Z,2025-08-29T00:00:00.000Z
557,99480 Mendota Road,5 Prairie Rose Alley,R S,Gujarat,395003,India,2025-08-29T00:00:00.000Z,2025-08-29T00:00:00.000Z
558,8 Northwestern Way,3226 Kenwood Park,Sadar Bazar,Uttar Pradesh,281002,India,2025-08-29T00:00:00.000Z,2025-08-29T00:00:00.000Z
559,7 Heath Junction,260 Stephen Circle,Sadar Bazar,Uttar Pradesh,281002,India,2025-08-29T00:00:00.000Z,2025-08-29T00:00:00.000Z
560,6 Shelley Drive,46481 Melby Point,Agraharam,Andhra Pradesh,532663,India,2025-08-29T00:00:00.000Z,2025-08-29T00:00:00.000Z
561,07130 Brown Point,4 Orin Alley,Agraharam,Andhra Pradesh,532663,India,2025-08-29T00:00:00.000Z,2025-08-29T00:00:00.000Z
562,6625 Gerald Road,3888 Marcy Parkway,Agraharam,Andhra Pradesh,532663,India,2025-08-29T00:00:00.000Z,2025-08-29T00:00:00.000Z
563,393 Barby Center,69054 Redwing Trail,Agraharam,Andhra Pradesh,532663,India,2025-08-29T00:00:00.000Z,2025-08-29T00:00:00.000Z
564,329 Dryden Circle,7 Jenifer Alley,Sadar Bazar,Uttar Pradesh,281002,India,2025-08-29T00:00:00.000Z,2025-08-29T00:00:00.000Z
565,376 Mandrake Plaza,9 Springs Street,Agraharam,Andhra Pradesh,532663,India,2025-08-29T00:00:00.000Z,2025-08-29T00:00:00.000Z
566,49 Dryden Lane,908 Arkansas Drive,Agraharam,Andhra Pradesh,532663,India,2025-08-29T00:00:00.000Z,2025-08-29T00:00:00.000Z
567,85001 Glacier Hill Hill,545 Spaight Lane,Sadar Bazar,Uttar Pradesh,281002,India,2025-08-29T00:00:00.000Z,2025-08-29T00:00:00.000Z
568,0638 Waywood Avenue,8418 Park Meadow Street,Agraharam,Andhra Pradesh,532663,India,2025-08-29T00:00:00.000Z,2025-08-29T00:00:00.000Z
569,172 Talmadge Point,21 Rusk Place,Agraharam,Andhra Pradesh,532663,India,2025-08-29T00:00:00.000Z,2025-08-29T00:00:00.000Z
570,86793 Mosinee Point,6373 Almo Terrace,Sadar Bazar,Uttar Pradesh,281002,India,2025-08-29T00:00:00.000Z,2025-08-29T00:00:00.000Z
571,140 Helena Street,4 Washington Parkway,R S,Gujarat,395003,India,2025-08-29T00:00:00.000Z,2025-08-29T00:00:00.000Z
572,69583 Lerdahl Center,7 Northport Trail,Sadar Bazar,Uttar Pradesh,281002,India,2025-08-29T00:00:00.000Z,2025-08-29T00:00:00.000Z
573,11050 Oxford Avenue,9121 Dawn Street,Agraharam,Andhra Pradesh,532663,India,2025-08-29T00:00:00.000Z,2025-08-29T00:00:00.000Z
574,0 7th Street,609 Saint Paul Crossing,R S,Gujarat,395003,India,2025-08-29T00:00:00.000Z,2025-08-29T00:00:00.000Z
575,7742 Bay Plaza,6303 Sauthoff Court,R S,Gujarat,395003,India,2025-08-29T00:00:00.000Z,2025-08-29T00:00:00.000Z
576,38 Tony Pass,23574 Gina Circle,Agraharam,Andhra Pradesh,532663,India,2025-08-29T00:00:00.000Z,2025-08-29T00:00:00.000Z
577,71 Lukken Lane,6020 Reindahl Hill,Sadar Bazar,Uttar Pradesh,281002,India,2025-08-29T00:00:00.000Z,2025-08-29T00:00:00.000Z
578,21 Eastwood Street,52480 Spaight Point,Agraharam,Andhra Pradesh,532663,India,2025-08-29T00:00:00.000Z,2025-08-29T00:00:00.000Z
579,95 Barby Point,197 Montana Crossing,Agraharam,Andhra Pradesh,532663,India,2025-08-29T00:00:00.000Z,2025-08-29T00:00:00.000Z
580,045 Old Gate Parkway,7789 Mayer Junction,R S,Gujarat,395003,India,2025-08-29T00:00:00.000Z,2025-08-29T00:00:00.000Z
581,587 2nd Street,50 Lukken Pass,R S,Gujarat,395003,India,2025-08-29T00:00:00.000Z,2025-08-29T00:00:00.000Z
582,50 Pond Terrace,454 Norway Maple Hill,R S,Gujarat,395003,India,2025-08-29T00:00:00.000Z,2025-08-29T00:00:00.000Z
583,07182 Oakridge Hill,724 Scott Drive,Sadar Bazar,Uttar Pradesh,281002,India,2025-08-29T00:00:00.000Z,2025-08-29T00:00:00.000Z
584,04 Superior Avenue,27504 Nobel Crossing,R S,Gujarat,395003,India,2025-08-29T00:00:00.000Z,2025-08-29T00:00:00.000Z
585,896 Sutherland Alley,872 John Wall Way,Sadar Bazar,Uttar Pradesh,281002,India,2025-08-29T00:00:00.000Z,2025-08-29T00:00:00.000Z
586,26923 Blaine Trail,19040 Schlimgen Point,Sadar Bazar,Uttar Pradesh,281002,India,2025-08-29T00:00:00.000Z,2025-08-29T00:00:00.000Z
587,10 Shasta Drive,26405 Transport Crossing,Sadar Bazar,Uttar Pradesh,281002,India,2025-08-29T00:00:00.000Z,2025-08-29T00:00:00.000Z
588,73611 Quincy Plaza,05 Leroy Crossing,R S,Gujarat,395003,India,2025-08-29T00:00:00.000Z,2025-08-29T00:00:00.000Z
589,35 Brickson Park Pass,62865 New Castle Center,Agraharam,Andhra Pradesh,532663,India,2025-08-29T00:00:00.000Z,2025-08-29T00:00:00.000Z
590,77233 Homewood Junction,9630 Fairfield Park,R S,Gujarat,395003,India,2025-08-29T00:00:00.000Z,2025-08-29T00:00:00.000Z
591,40 Atwood Street,26270 Briar Crest Lane,Sadar Bazar,Uttar Pradesh,281002,India,2025-08-29T00:00:00.000Z,2025-08-29T00:00:00.000Z
592,6 Judy Center,5507 Chive Alley,Agraharam,Andhra Pradesh,532663,India,2025-08-29T00:00:00.000Z,2025-08-29T00:00:00.000Z
593,9 Nancy Terrace,2580 Lyons Park,R S,Gujarat,395003,India,2025-08-29T00:00:00.000Z,2025-08-29T00:00:00.000Z
594,7 Delladonna Pass,3208 Birchwood Street,Agraharam,Andhra Pradesh,532663,India,2025-08-29T00:00:00.000Z,2025-08-29T00:00:00.000Z
595,44091 Del Mar Place,25 Kensington Park,R S,Gujarat,395003,India,2025-08-29T00:00:00.000Z,2025-08-29T00:00:00.000Z
596,58 Cambridge Court,113 Larry Court,Agraharam,Andhra Pradesh,532663,India,2025-08-29T00:00:00.000Z,2025-08-29T00:00:00.000Z
597,0 Ilene Drive,3276 Basil Alley,R S,Gujarat,395003,India,2025-08-29T00:00:00.000Z,2025-08-29T00:00:00.000Z
598,688 Stuart Circle,0665 Mitchell Center,Agraharam,Andhra Pradesh,532663,India,2025-08-29T00:00:00.000Z,2025-08-29T00:00:00.000Z
599,3740 Laurel Way,461 6th Parkway,R S,Gujarat,395003,India,2025-08-29T00:00:00.000Z,2025-08-29T00:00:00.000Z
600,1 Ridgeview Plaza,03 Schmedeman Hill,Agraharam,Andhra Pradesh,532663,India,2025-08-29T00:00:00.000Z,2025-08-29T00:00:00.000Z
601,014 Killdeer Drive,0657 Schmedeman Plaza,Agraharam,Andhra Pradesh,532663,India,2025-08-29T00:00:00.000Z,2025-08-29T00:00:00.000Z
602,492 Bay Drive,68 Browning Lane,R S,Gujarat,395003,India,2025-08-29T00:00:00.000Z,2025-08-29T00:00:00.000Z
603,7730 Golf Street,96 Fuller Trail,Agraharam,Andhra Pradesh,532663,India,2025-08-29T00:00:00.000Z,2025-08-29T00:00:00.000Z
604,96936 Sundown Trail,05149 Merrick Avenue,Agraharam,Andhra Pradesh,532663,India,2025-08-29T00:00:00.000Z,2025-08-29T00:00:00.000Z
605,987 Spenser Street,2 Eliot Parkway,Agraharam,Andhra Pradesh,532663,India,2025-08-29T00:00:00.000Z,2025-08-29T00:00:00.000Z
606,480 Shopko Circle,994 Magdeline Terrace,Agraharam,Andhra Pradesh,532663,India,2025-08-29T00:00:00.000Z,2025-08-29T00:00:00.000Z
607,33125 Milwaukee Hill,373 Pierstorff Place,Sadar Bazar,Uttar Pradesh,281002,India,2025-08-29T00:00:00.000Z,2025-08-29T00:00:00.000Z
608,3 Brown Park,16 Crescent Oaks Way,Agraharam,Andhra Pradesh,532663,India,2025-08-29T00:00:00.000Z,2025-08-29T00:00:00.000Z
609,41432 Graceland Alley,7 Vidon Terrace,Agraharam,Andhra Pradesh,532663,India,2025-08-29T00:00:00.000Z,2025-08-29T00:00:00.000Z
610,1 Sunfield Plaza,8 Vernon Street,Agraharam,Andhra Pradesh,532663,India,2025-08-29T00:00:00.000Z,2025-08-29T00:00:00.000Z
611,61787 Eastlawn Hill,69680 Corry Alley,Sadar Bazar,Uttar Pradesh,281002,India,2025-08-29T00:00:00.000Z,2025-08-29T00:00:00.000Z
612,3420 Upham Hill,5940 Forster Place,Sadar Bazar,Uttar Pradesh,281002,India,2025-08-29T00:00:00.000Z,2025-08-29T00:00:00.000Z
613,53 Dryden Road,975 Acker Avenue,Sadar Bazar,Uttar Pradesh,281002,India,2025-08-29T00:00:00.000Z,2025-08-29T00:00:00.000Z
614,5 Monument Circle,575 2nd Park,R S,Gujarat,395003,India,2025-08-29T00:00:00.000Z,2025-08-29T00:00:00.000Z
615,6630 Evergreen Center,226 Goodland Trail,Agraharam,Andhra Pradesh,532663,India,2025-08-29T00:00:00.000Z,2025-08-29T00:00:00.000Z
616,883 Roxbury Court,1726 Boyd Way,Sadar Bazar,Uttar Pradesh,281002,India,2025-08-29T00:00:00.000Z,2025-08-29T00:00:00.000Z
617,2568 Randy Junction,79 Shoshone Place,Agraharam,Andhra Pradesh,532663,India,2025-08-29T00:00:00.000Z,2025-08-29T00:00:00.000Z
618,5 Esker Crossing,9752 Arapahoe Drive,R S,Gujarat,395003,India,2025-08-29T00:00:00.000Z,2025-08-29T00:00:00.000Z
619,7 Dryden Plaza,62769 Mesta Point,Sadar Bazar,Uttar Pradesh,281002,India,2025-08-29T00:00:00.000Z,2025-08-29T00:00:00.000Z
620,65104 Grasskamp Avenue,0011 Starling Plaza,R S,Gujarat,395003,India,2025-08-29T00:00:00.000Z,2025-08-29T00:00:00.000Z
621,1 Westend Drive,56 Golden Leaf Parkway,R S,Gujarat,395003,India,2025-08-29T00:00:00.000Z,2025-08-29T00:00:00.000Z
622,99966 Troy Trail,4894 Corben Trail,Sadar Bazar,Uttar Pradesh,281002,India,2025-08-29T00:00:00.000Z,2025-08-29T00:00:00.000Z
623,9 East Pass,791 Knutson Center,Agraharam,Andhra Pradesh,532663,India,2025-08-29T00:00:00.000Z,2025-08-29T00:00:00.000Z
624,78 Loomis Junction,49 Grover Drive,Agraharam,Andhra Pradesh,532663,India,2025-08-29T00:00:00.000Z,2025-08-29T00:00:00.000Z
625,5893 3rd Crossing,1 Emmet Point,Sadar Bazar,Uttar Pradesh,281002,India,2025-08-29T00:00:00.000Z,2025-08-29T00:00:00.000Z
626,5 Dapin Parkway,31083 Shopko Lane,R S,Gujarat,395003,India,2025-08-29T00:00:00.000Z,2025-08-29T00:00:00.000Z
627,4 Union Trail,52 Eagan Pass,Agraharam,Andhra Pradesh,532663,India,2025-08-29T00:00:00.000Z,2025-08-29T00:00:00.000Z
628,21 Pennsylvania Junction,4574 Butternut Lane,Sadar Bazar,Uttar Pradesh,281002,India,2025-08-29T00:00:00.000Z,2025-08-29T00:00:00.000Z
629,81 Schlimgen Drive,91 Redwing Park,Sadar Bazar,Uttar Pradesh,281002,India,2025-08-29T00:00:00.000Z,2025-08-29T00:00:00.000Z
630,832 Dahle Hill,55 Stephen Trail,Sadar Bazar,Uttar Pradesh,281002,India,2025-08-29T00:00:00.000Z,2025-08-29T00:00:00.000Z
631,7388 Talmadge Drive,22 Springs Terrace,Sadar Bazar,Uttar Pradesh,281002,India,2025-08-29T00:00:00.000Z,2025-08-29T00:00:00.000Z
632,2 Annamark Crossing,39751 Jana Alley,R S,Gujarat,395003,India,2025-08-29T00:00:00.000Z,2025-08-29T00:00:00.000Z
633,0857 Packers Trail,5 Waxwing Street,Agraharam,Andhra Pradesh,532663,India,2025-08-29T00:00:00.000Z,2025-08-29T00:00:00.000Z
634,30 Division Trail,5 Claremont Court,Agraharam,Andhra Pradesh,532663,India,2025-08-29T00:00:00.000Z,2025-08-29T00:00:00.000Z
635,25366 Delaware Center,7 Anhalt Lane,Sadar Bazar,Uttar Pradesh,281002,India,2025-08-29T00:00:00.000Z,2025-08-29T00:00:00.000Z
636,384 Grover Terrace,38402 Montana Point,Sadar Bazar,Uttar Pradesh,281002,India,2025-08-29T00:00:00.000Z,2025-08-29T00:00:00.000Z
637,97095 Sugar Trail,10 Mcbride Pass,Sadar Bazar,Uttar Pradesh,281002,India,2025-08-29T00:00:00.000Z,2025-08-29T00:00:00.000Z
638,504 Stuart Circle,57235 Gina Center,Sadar Bazar,Uttar Pradesh,281002,India,2025-08-29T00:00:00.000Z,2025-08-29T00:00:00.000Z
639,00 Jay Drive,5 Union Street,Sadar Bazar,Uttar Pradesh,281002,India,2025-08-29T00:00:00.000Z,2025-08-29T00:00:00.000Z
640,050 Maryland Junction,6 Westridge Pass,Agraharam,Andhra Pradesh,532663,India,2025-08-29T00:00:00.000Z,2025-08-29T00:00:00.000Z
641,04885 Sugar Point,1894 Prairie Rose Way,Agraharam,Andhra Pradesh,532663,India,2025-08-29T00:00:00.000Z,2025-08-29T00:00:00.000Z
642,13 Steensland Road,8384 Pierstorff Hill,Sadar Bazar,Uttar Pradesh,281002,India,2025-08-29T00:00:00.000Z,2025-08-29T00:00:00.000Z
643,97034 Clyde Gallagher Parkway,792 Hintze Place,Agraharam,Andhra Pradesh,532663,India,2025-08-29T00:00:00.000Z,2025-08-29T00:00:00.000Z
644,87113 Jay Pass,74 Tennyson Junction,R S,Gujarat,395003,India,2025-08-29T00:00:00.000Z,2025-08-29T00:00:00.000Z
645,83 Pearson Avenue,9 Rieder Avenue,R S,Gujarat,395003,India,2025-08-29T00:00:00.000Z,2025-08-29T00:00:00.000Z
646,37395 Dixon Park,1580 Oak Valley Trail,R S,Gujarat,395003,India,2025-08-29T00:00:00.000Z,2025-08-29T00:00:00.000Z
647,0 Autumn Leaf Street,1 Canary Alley,R S,Gujarat,395003,India,2025-08-29T00:00:00.000Z,2025-08-29T00:00:00.000Z
648,804 Warner Pass,42002 Shasta Drive,Sadar Bazar,Uttar Pradesh,281002,India,2025-08-29T00:00:00.000Z,2025-08-29T00:00:00.000Z
649,9 Esker Terrace,4156 Grover Place,R S,Gujarat,395003,India,2025-08-29T00:00:00.000Z,2025-08-29T00:00:00.000Z
650,1 Merchant Drive,6 Nobel Way,R S,Gujarat,395003,India,2025-08-29T00:00:00.000Z,2025-08-29T00:00:00.000Z
651,63275 Lukken Hill,4 Eggendart Terrace,R S,Gujarat,395003,India,2025-08-29T00:00:00.000Z,2025-08-29T00:00:00.000Z
652,375 Moland Road,02 Fuller Avenue,Agraharam,Andhra Pradesh,532663,India,2025-08-29T00:00:00.000Z,2025-08-29T00:00:00.000Z
653,2 Waywood Court,4044 Artisan Lane,R S,Gujarat,395003,India,2025-08-29T00:00:00.000Z,2025-08-29T00:00:00.000Z
654,87 Old Gate Lane,734 Heffernan Hill,R S,Gujarat,395003,India,2025-08-29T00:00:00.000Z,2025-08-29T00:00:00.000Z
655,10893 Sunfield Way,8610 Melody Road,Agraharam,Andhra Pradesh,532663,India,2025-08-29T00:00:00.000Z,2025-08-29T00:00:00.000Z
656,2 Farmco Point,54 Utah Plaza,R S,Gujarat,395003,India,2025-08-29T00:00:00.000Z,2025-08-29T00:00:00.000Z
657,545 Anniversary Pass,48971 Carberry Park,R S,Gujarat,395003,India,2025-08-29T00:00:00.000Z,2025-08-29T00:00:00.000Z
658,060 Westerfield Center,5137 Northview Hill,R S,Gujarat,395003,India,2025-08-29T00:00:00.000Z,2025-08-29T00:00:00.000Z
659,7 West Lane,7 Maryland Circle,Agraharam,Andhra Pradesh,532663,India,2025-08-29T00:00:00.000Z,2025-08-29T00:00:00.000Z
660,5739 Stoughton Pass,7 Drewry Road,Sadar Bazar,Uttar Pradesh,281002,India,2025-08-29T00:00:00.000Z,2025-08-29T00:00:00.000Z
661,5230 Caliangt Circle,6346 Sullivan Parkway,Agraharam,Andhra Pradesh,532663,India,2025-08-29T00:00:00.000Z,2025-08-29T00:00:00.000Z
662,9711 Wayridge Plaza,99016 Gateway Crossing,R S,Gujarat,395003,India,2025-08-29T00:00:00.000Z,2025-08-29T00:00:00.000Z
663,06862 Lakeland Parkway,30701 Nobel Drive,Sadar Bazar,Uttar Pradesh,281002,India,2025-08-29T00:00:00.000Z,2025-08-29T00:00:00.000Z
664,489 Bobwhite Park,2 Reinke Center,R S,Gujarat,395003,India,2025-08-29T00:00:00.000Z,2025-08-29T00:00:00.000Z
665,57 Vermont Plaza,2527 Dwight Place,Agraharam,Andhra Pradesh,532663,India,2025-08-29T00:00:00.000Z,2025-08-29T00:00:00.000Z
666,844 Lillian Park,58907 Union Trail,R S,Gujarat,395003,India,2025-08-29T00:00:00.000Z,2025-08-29T00:00:00.000Z
667,7 Badeau Alley,4 Warner Center,R S,Gujarat,395003,India,2025-08-29T00:00:00.000Z,2025-08-29T00:00:00.000Z
668,3 Spenser Terrace,58401 Gateway Point,Sadar Bazar,Uttar Pradesh,281002,India,2025-08-29T00:00:00.000Z,2025-08-29T00:00:00.000Z
669,1333 Buell Circle,69257 Longview Court,Sadar Bazar,Uttar Pradesh,281002,India,2025-08-29T00:00:00.000Z,2025-08-29T00:00:00.000Z
670,2 Sheridan Alley,8742 Anzinger Pass,R S,Gujarat,395003,India,2025-08-29T00:00:00.000Z,2025-08-29T00:00:00.000Z
671,2578 Karstens Place,1 Doe Crossing Road,R S,Gujarat,395003,India,2025-08-29T00:00:00.000Z,2025-08-29T00:00:00.000Z
672,7195 Butterfield Junction,04890 Mendota Street,R S,Gujarat,395003,India,2025-08-29T00:00:00.000Z,2025-08-29T00:00:00.000Z
673,64 Jenifer Pass,81433 Alpine Avenue,Agraharam,Andhra Pradesh,532663,India,2025-08-29T00:00:00.000Z,2025-08-29T00:00:00.000Z
674,2 Cordelia Crossing,1812 Golf Course Court,Agraharam,Andhra Pradesh,532663,India,2025-08-29T00:00:00.000Z,2025-08-29T00:00:00.000Z
675,6420 Garrison Road,059 Golf Course Point,Sadar Bazar,Uttar Pradesh,281002,India,2025-08-29T00:00:00.000Z,2025-08-29T00:00:00.000Z
676,94422 Amoth Circle,8655 Harper Trail,Sadar Bazar,Uttar Pradesh,281002,India,2025-08-29T00:00:00.000Z,2025-08-29T00:00:00.000Z
677,635 Lillian Park,11376 Dexter Hill,Sadar Bazar,Uttar Pradesh,281002,India,2025-08-29T00:00:00.000Z,2025-08-29T00:00:00.000Z
678,85402 Eggendart Center,29 1st Pass,R S,Gujarat,395003,India,2025-08-29T00:00:00.000Z,2025-08-29T00:00:00.000Z
679,536 Cascade Center,4 Hanover Trail,Sadar Bazar,Uttar Pradesh,281002,India,2025-08-29T00:00:00.000Z,2025-08-29T00:00:00.000Z
680,51452 Darwin Park,85118 Kennedy Plaza,Sadar Bazar,Uttar Pradesh,281002,India,2025-08-29T00:00:00.000Z,2025-08-29T00:00:00.000Z
681,70 Morning Center,82498 Kinsman Hill,Sadar Bazar,Uttar Pradesh,281002,India,2025-08-29T00:00:00.000Z,2025-08-29T00:00:00.000Z
682,9313 Gerald Park,331 Valley Edge Avenue,Agraharam,Andhra Pradesh,532663,India,2025-08-29T00:00:00.000Z,2025-08-29T00:00:00.000Z
683,2 Spenser Circle,22 American Point,R S,Gujarat,395003,India,2025-08-29T00:00:00.000Z,2025-08-29T00:00:00.000Z
684,84 Porter Alley,47712 Bluejay Lane,Agraharam,Andhra Pradesh,532663,India,2025-08-29T00:00:00.000Z,2025-08-29T00:00:00.000Z
685,66 Florence Parkway,90 Oriole Trail,R S,Gujarat,395003,India,2025-08-29T00:00:00.000Z,2025-08-29T00:00:00.000Z
686,6 Haas Terrace,3 Blue Bill Park Way,Sadar Bazar,Uttar Pradesh,281002,India,2025-08-29T00:00:00.000Z,2025-08-29T00:00:00.000Z
687,371 Becker Drive,017 Towne Point,Sadar Bazar,Uttar Pradesh,281002,India,2025-08-29T00:00:00.000Z,2025-08-29T00:00:00.000Z
688,0840 Schmedeman Court,99 American Ash Terrace,Agraharam,Andhra Pradesh,532663,India,2025-08-29T00:00:00.000Z,2025-08-29T00:00:00.000Z
689,9904 Summer Ridge Way,9475 Union Street,R S,Gujarat,395003,India,2025-08-29T00:00:00.000Z,2025-08-29T00:00:00.000Z
690,828 Becker Place,35 Brown Hill,Agraharam,Andhra Pradesh,532663,India,2025-08-29T00:00:00.000Z,2025-08-29T00:00:00.000Z
691,9783 Forest Dale Plaza,52 Waxwing Court,R S,Gujarat,395003,India,2025-08-29T00:00:00.000Z,2025-08-29T00:00:00.000Z
692,1 Schiller Pass,284 Raven Park,R S,Gujarat,395003,India,2025-08-29T00:00:00.000Z,2025-08-29T00:00:00.000Z
693,6809 Warner Road,67783 Goodland Street,Agraharam,Andhra Pradesh,532663,India,2025-08-29T00:00:00.000Z,2025-08-29T00:00:00.000Z
694,2795 John Wall Pass,99 Meadow Ridge Plaza,Agraharam,Andhra Pradesh,532663,India,2025-08-29T00:00:00.000Z,2025-08-29T00:00:00.000Z
695,605 Northfield Pass,48 Jay Park,Sadar Bazar,Uttar Pradesh,281002,India,2025-08-29T00:00:00.000Z,2025-08-29T00:00:00.000Z
696,15329 Hoard Trail,2 Goodland Parkway,R S,Gujarat,395003,India,2025-08-29T00:00:00.000Z,2025-08-29T00:00:00.000Z
697,2457 Forster Avenue,651 Little Fleur Pass,R S,Gujarat,395003,India,2025-08-29T00:00:00.000Z,2025-08-29T00:00:00.000Z
698,7843 Rusk Court,6 Bay Parkway,Agraharam,Andhra Pradesh,532663,India,2025-08-29T00:00:00.000Z,2025-08-29T00:00:00.000Z
699,715 Susan Terrace,1401 Rockefeller Lane,R S,Gujarat,395003,India,2025-08-29T00:00:00.000Z,2025-08-29T00:00:00.000Z
700,97746 West Drive,3 Pepper Wood Road,Sadar Bazar,Uttar Pradesh,281002,India,2025-08-29T00:00:00.000Z,2025-08-29T00:00:00.000Z
701,202 Grover Hill,1 Killdeer Terrace,Sadar Bazar,Uttar Pradesh,281002,India,2025-08-29T00:00:00.000Z,2025-08-29T00:00:00.000Z
702,89913 Donald Center,8 Washington Park,R S,Gujarat,395003,India,2025-08-29T00:00:00.000Z,2025-08-29T00:00:00.000Z
703,2411 Laurel Street,3939 Brickson Park Point,Sadar Bazar,Uttar Pradesh,281002,India,2025-08-29T00:00:00.000Z,2025-08-29T00:00:00.000Z
704,81522 Eastwood Trail,819 Clarendon Center,R S,Gujarat,395003,India,2025-08-29T00:00:00.000Z,2025-08-29T00:00:00.000Z
705,7631 Fisk Crossing,9921 Columbus Junction,R S,Gujarat,395003,India,2025-08-29T00:00:00.000Z,2025-08-29T00:00:00.000Z
706,87 Logan Alley,679 Riverside Alley,Sadar Bazar,Uttar Pradesh,281002,India,2025-08-29T00:00:00.000Z,2025-08-29T00:00:00.000Z
707,238 Rieder Pass,7 Carey Junction,Agraharam,Andhra Pradesh,532663,India,2025-08-29T00:00:00.000Z,2025-08-29T00:00:00.000Z
708,93 Talmadge Terrace,35 Burning Wood Terrace,R S,Gujarat,395003,India,2025-08-29T00:00:00.000Z,2025-08-29T00:00:00.000Z
709,452 Anhalt Lane,020 Linden Hill,R S,Gujarat,395003,India,2025-08-29T00:00:00.000Z,2025-08-29T00:00:00.000Z
710,02 Morrow Road,64796 Ilene Center,Sadar Bazar,Uttar Pradesh,281002,India,2025-08-29T00:00:00.000Z,2025-08-29T00:00:00.000Z
711,5 Stoughton Plaza,61041 Fairview Alley,Sadar Bazar,Uttar Pradesh,281002,India,2025-08-29T00:00:00.000Z,2025-08-29T00:00:00.000Z
712,7 Red Cloud Terrace,76166 Hanson Point,Sadar Bazar,Uttar Pradesh,281002,India,2025-08-29T00:00:00.000Z,2025-08-29T00:00:00.000Z
713,6919 Brown Lane,32516 Vermont Plaza,R S,Gujarat,395003,India,2025-08-29T00:00:00.000Z,2025-08-29T00:00:00.000Z
714,49549 Sauthoff Terrace,8 Esch Street,Sadar Bazar,Uttar Pradesh,281002,India,2025-08-29T00:00:00.000Z,2025-08-29T00:00:00.000Z
715,04706 Forster Way,7938 Monument Junction,Agraharam,Andhra Pradesh,532663,India,2025-08-29T00:00:00.000Z,2025-08-29T00:00:00.000Z
716,5 Dennis Circle,304 Clarendon Point,Agraharam,Andhra Pradesh,532663,India,2025-08-29T00:00:00.000Z,2025-08-29T00:00:00.000Z
717,07 Reinke Trail,14272 Scofield Crossing,R S,Gujarat,395003,India,2025-08-29T00:00:00.000Z,2025-08-29T00:00:00.000Z
718,5 Corscot Way,6 Bunker Hill Drive,R S,Gujarat,395003,India,2025-08-29T00:00:00.000Z,2025-08-29T00:00:00.000Z
719,77 Sloan Lane,9 High Crossing Plaza,Sadar Bazar,Uttar Pradesh,281002,India,2025-08-29T00:00:00.000Z,2025-08-29T00:00:00.000Z
720,7 Sauthoff Parkway,173 Crowley Street,Sadar Bazar,Uttar Pradesh,281002,India,2025-08-29T00:00:00.000Z,2025-08-29T00:00:00.000Z
721,3 American Drive,1207 Columbus Road,R S,Gujarat,395003,India,2025-08-29T00:00:00.000Z,2025-08-29T00:00:00.000Z
722,25 Lindbergh Street,29852 Bowman Road,Sadar Bazar,Uttar Pradesh,281002,India,2025-08-29T00:00:00.000Z,2025-08-29T00:00:00.000Z
723,02802 Michigan Junction,74 Hoard Trail,Agraharam,Andhra Pradesh,532663,India,2025-08-29T00:00:00.000Z,2025-08-29T00:00:00.000Z
724,4 Barnett Pass,8 Holy Cross Point,Agraharam,Andhra Pradesh,532663,India,2025-08-29T00:00:00.000Z,2025-08-29T00:00:00.000Z
725,44695 Ryan Street,8147 Gerald Circle,R S,Gujarat,395003,India,2025-08-29T00:00:00.000Z,2025-08-29T00:00:00.000Z
726,2535 Derek Way,08684 Tennyson Terrace,Agraharam,Andhra Pradesh,532663,India,2025-08-29T00:00:00.000Z,2025-08-29T00:00:00.000Z
727,25 Becker Junction,80 Sugar Court,Sadar Bazar,Uttar Pradesh,281002,India,2025-08-29T00:00:00.000Z,2025-08-29T00:00:00.000Z
728,3625 Butternut Pass,2 Hallows Pass,Sadar Bazar,Uttar Pradesh,281002,India,2025-08-29T00:00:00.000Z,2025-08-29T00:00:00.000Z
729,6394 Meadow Ridge Circle,60 Crownhardt Junction,R S,Gujarat,395003,India,2025-08-29T00:00:00.000Z,2025-08-29T00:00:00.000Z
730,2967 Rigney Lane,5 Birchwood Parkway,Agraharam,Andhra Pradesh,532663,India,2025-08-29T00:00:00.000Z,2025-08-29T00:00:00.000Z
731,5859 Huxley Hill,41802 Hoffman Parkway,Sadar Bazar,Uttar Pradesh,281002,India,2025-08-29T00:00:00.000Z,2025-08-29T00:00:00.000Z
732,6 Grasskamp Crossing,4 Fisk Circle,R S,Gujarat,395003,India,2025-08-29T00:00:00.000Z,2025-08-29T00:00:00.000Z
733,034 Donald Junction,952 Lakeland Court,Sadar Bazar,Uttar Pradesh,281002,India,2025-08-29T00:00:00.000Z,2025-08-29T00:00:00.000Z
734,731 Mallory Avenue,866 Graceland Plaza,Agraharam,Andhra Pradesh,532663,India,2025-08-29T00:00:00.000Z,2025-08-29T00:00:00.000Z
735,6 Lakewood Gardens Avenue,99 Forest Center,R S,Gujarat,395003,India,2025-08-29T00:00:00.000Z,2025-08-29T00:00:00.000Z
736,7 Manley Place,02958 John Wall Way,R S,Gujarat,395003,India,2025-08-29T00:00:00.000Z,2025-08-29T00:00:00.000Z
737,626 Schiller Circle,2126 Lindbergh Parkway,Agraharam,Andhra Pradesh,532663,India,2025-08-29T00:00:00.000Z,2025-08-29T00:00:00.000Z
738,77 Longview Pass,30645 Tony Street,Sadar Bazar,Uttar Pradesh,281002,India,2025-08-29T00:00:00.000Z,2025-08-29T00:00:00.000Z
739,695 Merchant Trail,2714 Anthes Court,Sadar Bazar,Uttar Pradesh,281002,India,2025-08-29T00:00:00.000Z,2025-08-29T00:00:00.000Z
740,461 Luster Drive,72 Haas Lane,Agraharam,Andhra Pradesh,532663,India,2025-08-29T00:00:00.000Z,2025-08-29T00:00:00.000Z
741,6 Kensington Hill,76 Bowman Circle,Agraharam,Andhra Pradesh,532663,India,2025-08-29T00:00:00.000Z,2025-08-29T00:00:00.000Z
742,134 Tomscot Drive,05 Sunnyside Pass,Sadar Bazar,Uttar Pradesh,281002,India,2025-08-29T00:00:00.000Z,2025-08-29T00:00:00.000Z
743,04876 Miller Terrace,01 Kedzie Road,R S,Gujarat,395003,India,2025-08-29T00:00:00.000Z,2025-08-29T00:00:00.000Z
744,21 Briar Crest Alley,2671 Esker Terrace,Sadar Bazar,Uttar Pradesh,281002,India,2025-08-29T00:00:00.000Z,2025-08-29T00:00:00.000Z
745,2444 Melvin Way,3792 Park Meadow Lane,Agraharam,Andhra Pradesh,532663,India,2025-08-29T00:00:00.000Z,2025-08-29T00:00:00.000Z
746,461 Stephen Terrace,2 Carey Pass,R S,Gujarat,395003,India,2025-08-29T00:00:00.000Z,2025-08-29T00:00:00.000Z
747,374 Mallard Crossing,6 Cottonwood Trail,Sadar Bazar,Uttar Pradesh,281002,India,2025-08-29T00:00:00.000Z,2025-08-29T00:00:00.000Z
748,608 Sunnyside Point,175 Drewry Terrace,R S,Gujarat,395003,India,2025-08-29T00:00:00.000Z,2025-08-29T00:00:00.000Z
749,29 Jay Avenue,45 Esch Circle,Agraharam,Andhra Pradesh,532663,India,2025-08-29T00:00:00.000Z,2025-08-29T00:00:00.000Z
750,6971 Briar Crest Plaza,26143 Novick Parkway,R S,Gujarat,395003,India,2025-08-29T00:00:00.000Z,2025-08-29T00:00:00.000Z
751,71 Nobel Junction,17 Arizona Point,Sadar Bazar,Uttar Pradesh,281002,India,2025-08-29T00:00:00.000Z,2025-08-29T00:00:00.000Z
752,028 Manufacturers Center,6021 Springs Place,Sadar Bazar,Uttar Pradesh,281002,India,2025-08-29T00:00:00.000Z,2025-08-29T00:00:00.000Z
753,112 Hayes Hill,1400 Melody Terrace,Agraharam,Andhra Pradesh,532663,India,2025-08-29T00:00:00.000Z,2025-08-29T00:00:00.000Z
754,6 Monterey Trail,73 Mayer Point,R S,Gujarat,395003,India,2025-08-29T00:00:00.000Z,2025-08-29T00:00:00.000Z
755,5067 International Hill,0013 Homewood Alley,Sadar Bazar,Uttar Pradesh,281002,India,2025-08-29T00:00:00.000Z,2025-08-29T00:00:00.000Z
756,0 Holmberg Park,660 Sunnyside Park,R S,Gujarat,395003,India,2025-08-29T00:00:00.000Z,2025-08-29T00:00:00.000Z
757,01942 Dixon Avenue,37440 Farmco Circle,Agraharam,Andhra Pradesh,532663,India,2025-08-29T00:00:00.000Z,2025-08-29T00:00:00.000Z
758,882 Cardinal Park,7 Garrison Point,R S,Gujarat,395003,India,2025-08-29T00:00:00.000Z,2025-08-29T00:00:00.000Z
759,089 Elmside Alley,20 Ridgeway Drive,Sadar Bazar,Uttar Pradesh,281002,India,2025-08-29T00:00:00.000Z,2025-08-29T00:00:00.000Z
760,79 Stang Terrace,7913 Oak Valley Trail,Sadar Bazar,Uttar Pradesh,281002,India,2025-08-29T00:00:00.000Z,2025-08-29T00:00:00.000Z
761,7 Daystar Place,2 Vermont Avenue,Agraharam,Andhra Pradesh,532663,India,2025-08-29T00:00:00.000Z,2025-08-29T00:00:00.000Z
762,7846 Fordem Trail,2666 Almo Way,Agraharam,Andhra Pradesh,532663,India,2025-08-29T00:00:00.000Z,2025-08-29T00:00:00.000Z
763,2221 Marquette Park,436 Granby Crossing,Agraharam,Andhra Pradesh,532663,India,2025-08-29T00:00:00.000Z,2025-08-29T00:00:00.000Z
764,61 Charing Cross Place,9 Kropf Drive,R S,Gujarat,395003,India,2025-08-29T00:00:00.000Z,2025-08-29T00:00:00.000Z
765,5859 Buhler Place,5 Coleman Circle,Agraharam,Andhra Pradesh,532663,India,2025-08-29T00:00:00.000Z,2025-08-29T00:00:00.000Z
766,128 Eastwood Alley,57675 Chinook Way,Sadar Bazar,Uttar Pradesh,281002,India,2025-08-29T00:00:00.000Z,2025-08-29T00:00:00.000Z
767,174 Shopko Parkway,5196 2nd Hill,Agraharam,Andhra Pradesh,532663,India,2025-08-29T00:00:00.000Z,2025-08-29T00:00:00.000Z
768,1 School Center,8822 Amoth Circle,Agraharam,Andhra Pradesh,532663,India,2025-08-29T00:00:00.000Z,2025-08-29T00:00:00.000Z
769,96 Loftsgordon Point,1249 Meadow Ridge Junction,Sadar Bazar,Uttar Pradesh,281002,India,2025-08-29T00:00:00.000Z,2025-08-29T00:00:00.000Z
770,2 Susan Plaza,4250 Lindbergh Alley,Agraharam,Andhra Pradesh,532663,India,2025-08-29T00:00:00.000Z,2025-08-29T00:00:00.000Z
771,714 Steensland Pass,51 Norway Maple Street,R S,Gujarat,395003,India,2025-08-29T00:00:00.000Z,2025-08-29T00:00:00.000Z
772,317 Scott Alley,6 Banding Trail,Agraharam,Andhra Pradesh,532663,India,2025-08-29T00:00:00.000Z,2025-08-29T00:00:00.000Z
773,2413 Hanson Way,785 Brickson Park Circle,Sadar Bazar,Uttar Pradesh,281002,India,2025-08-29T00:00:00.000Z,2025-08-29T00:00:00.000Z
774,96133 American Ash Center,0980 Butternut Hill,Agraharam,Andhra Pradesh,532663,India,2025-08-29T00:00:00.000Z,2025-08-29T00:00:00.000Z
775,9888 Knutson Terrace,6215 Vera Hill,R S,Gujarat,395003,India,2025-08-29T00:00:00.000Z,2025-08-29T00:00:00.000Z
776,99 Mccormick Center,7369 Mcbride Avenue,R S,Gujarat,395003,India,2025-08-29T00:00:00.000Z,2025-08-29T00:00:00.000Z
777,1 Talmadge Hill,39 Dawn Place,R S,Gujarat,395003,India,2025-08-29T00:00:00.000Z,2025-08-29T00:00:00.000Z
778,9210 Bay Parkway,23 Straubel Drive,Sadar Bazar,Uttar Pradesh,281002,India,2025-08-29T00:00:00.000Z,2025-08-29T00:00:00.000Z
779,8869 Hallows Avenue,18 Iowa Park,Agraharam,Andhra Pradesh,532663,India,2025-08-29T00:00:00.000Z,2025-08-29T00:00:00.000Z
780,17232 Ridgeview Drive,42 Cambridge Crossing,Sadar Bazar,Uttar Pradesh,281002,India,2025-08-29T00:00:00.000Z,2025-08-29T00:00:00.000Z
781,27 Northridge Trail,66937 Crest Line Crossing,Agraharam,Andhra Pradesh,532663,India,2025-08-29T00:00:00.000Z,2025-08-29T00:00:00.000Z
782,04853 Corry Plaza,295 Dahle Junction,Sadar Bazar,Uttar Pradesh,281002,India,2025-08-29T00:00:00.000Z,2025-08-29T00:00:00.000Z
783,69 Homewood Road,557 Montana Avenue,Sadar Bazar,Uttar Pradesh,281002,India,2025-08-29T00:00:00.000Z,2025-08-29T00:00:00.000Z
784,6 Pleasure Court,9908 Grasskamp Place,Sadar Bazar,Uttar Pradesh,281002,India,2025-08-29T00:00:00.000Z,2025-08-29T00:00:00.000Z
785,6 Amoth Center,35721 Autumn Leaf Center,Agraharam,Andhra Pradesh,532663,India,2025-08-29T00:00:00.000Z,2025-08-29T00:00:00.000Z
786,4618 Lakewood Gardens Drive,15 Hanson Hill,R S,Gujarat,395003,India,2025-08-29T00:00:00.000Z,2025-08-29T00:00:00.000Z
787,084 Trailsway Alley,0 Lakewood Gardens Parkway,Sadar Bazar,Uttar Pradesh,281002,India,2025-08-29T00:00:00.000Z,2025-08-29T00:00:00.000Z
788,8698 Forster Road,40 Carpenter Court,R S,Gujarat,395003,India,2025-08-29T00:00:00.000Z,2025-08-29T00:00:00.000Z
789,7659 Loftsgordon Junction,591 Forest Dale Alley,Agraharam,Andhra Pradesh,532663,India,2025-08-29T00:00:00.000Z,2025-08-29T00:00:00.000Z
790,282 Haas Drive,59 Petterle Court,R S,Gujarat,395003,India,2025-08-29T00:00:00.000Z,2025-08-29T00:00:00.000Z
791,2329 Clyde Gallagher Hill,3 Mccormick Drive,Sadar Bazar,Uttar Pradesh,281002,India,2025-08-29T00:00:00.000Z,2025-08-29T00:00:00.000Z
792,8951 Del Sol Pass,42 1st Road,R S,Gujarat,395003,India,2025-08-29T00:00:00.000Z,2025-08-29T00:00:00.000Z
793,9354 Arapahoe Alley,608 Delladonna Parkway,R S,Gujarat,395003,India,2025-08-29T00:00:00.000Z,2025-08-29T00:00:00.000Z
794,56365 Lakewood Gardens Lane,8891 Everett Pass,Agraharam,Andhra Pradesh,532663,India,2025-08-29T00:00:00.000Z,2025-08-29T00:00:00.000Z
795,8713 Southridge Center,3 Hoffman Trail,Sadar Bazar,Uttar Pradesh,281002,India,2025-08-29T00:00:00.000Z,2025-08-29T00:00:00.000Z
796,84 Farwell Park,8904 Bayside Street,R S,Gujarat,395003,India,2025-08-29T00:00:00.000Z,2025-08-29T00:00:00.000Z
797,27465 Cambridge Street,494 Vahlen Park,Agraharam,Andhra Pradesh,532663,India,2025-08-29T00:00:00.000Z,2025-08-29T00:00:00.000Z
798,72 Commercial Street,693 Loeprich Hill,Agraharam,Andhra Pradesh,532663,India,2025-08-29T00:00:00.000Z,2025-08-29T00:00:00.000Z
799,87244 Brickson Park Street,80157 Hudson Court,Sadar Bazar,Uttar Pradesh,281002,India,2025-08-29T00:00:00.000Z,2025-08-29T00:00:00.000Z
800,62602 Saint Paul Pass,17839 Westerfield Alley,Sadar Bazar,Uttar Pradesh,281002,India,2025-08-29T00:00:00.000Z,2025-08-29T00:00:00.000Z
801,506 Eagan Pass,6892 Anhalt Crossing,Sadar Bazar,Uttar Pradesh,281002,India,2025-08-29T00:00:00.000Z,2025-08-29T00:00:00.000Z
802,62492 Kennedy Way,3 Sauthoff Road,R S,Gujarat,395003,India,2025-08-29T00:00:00.000Z,2025-08-29T00:00:00.000Z
803,292 7th Place,0 Declaration Hill,R S,Gujarat,395003,India,2025-08-29T00:00:00.000Z,2025-08-29T00:00:00.000Z
804,9 Merchant Place,00101 Towne Hill,Agraharam,Andhra Pradesh,532663,India,2025-08-29T00:00:00.000Z,2025-08-29T00:00:00.000Z
805,316 Monica Center,199 Vidon Center,Sadar Bazar,Uttar Pradesh,281002,India,2025-08-29T00:00:00.000Z,2025-08-29T00:00:00.000Z
806,57362 Sauthoff Center,61528 Harbort Lane,R S,Gujarat,395003,India,2025-08-29T00:00:00.000Z,2025-08-29T00:00:00.000Z
807,1757 Washington Place,4 Shoshone Parkway,Sadar Bazar,Uttar Pradesh,281002,India,2025-08-29T00:00:00.000Z,2025-08-29T00:00:00.000Z
808,5 Randy Terrace,26582 Independence Hill,Agraharam,Andhra Pradesh,532663,India,2025-08-29T00:00:00.000Z,2025-08-29T00:00:00.000Z
809,169 Harbort Street,0924 Truax Hill,R S,Gujarat,395003,India,2025-08-29T00:00:00.000Z,2025-08-29T00:00:00.000Z
810,476 Clemons Trail,3 Autumn Leaf Pass,Sadar Bazar,Uttar Pradesh,281002,India,2025-08-29T00:00:00.000Z,2025-08-29T00:00:00.000Z
811,0 Memorial Pass,15894 Farragut Crossing,Sadar Bazar,Uttar Pradesh,281002,India,2025-08-29T00:00:00.000Z,2025-08-29T00:00:00.000Z
812,54 Boyd Circle,67 Sycamore Court,R S,Gujarat,395003,India,2025-08-29T00:00:00.000Z,2025-08-29T00:00:00.000Z
813,95828 Blue Bill Park Terrace,76403 Macpherson Pass,R S,Gujarat,395003,India,2025-08-29T00:00:00.000Z,2025-08-29T00:00:00.000Z
814,867 Lawn Place,4629 La Follette Crossing,R S,Gujarat,395003,India,2025-08-29T00:00:00.000Z,2025-08-29T00:00:00.000Z
815,4 Almo Circle,65770 High Crossing Road,R S,Gujarat,395003,India,2025-08-29T00:00:00.000Z,2025-08-29T00:00:00.000Z
816,61041 Anzinger Road,147 Grayhawk Terrace,R S,Gujarat,395003,India,2025-08-29T00:00:00.000Z,2025-08-29T00:00:00.000Z
817,08 Bartillon Crossing,1 Lindbergh Lane,Agraharam,Andhra Pradesh,532663,India,2025-08-29T00:00:00.000Z,2025-08-29T00:00:00.000Z
818,3 Blue Bill Park Pass,310 Sycamore Parkway,Sadar Bazar,Uttar Pradesh,281002,India,2025-08-29T00:00:00.000Z,2025-08-29T00:00:00.000Z
819,5649 Carey Road,3964 Pepper Wood Crossing,R S,Gujarat,395003,India,2025-08-29T00:00:00.000Z,2025-08-29T00:00:00.000Z
820,599 Farmco Plaza,24 Colorado Trail,Sadar Bazar,Uttar Pradesh,281002,India,2025-08-29T00:00:00.000Z,2025-08-29T00:00:00.000Z
821,45140 Golf Course Avenue,26134 Mariners Cove Park,R S,Gujarat,395003,India,2025-08-29T00:00:00.000Z,2025-08-29T00:00:00.000Z
822,96 Michigan Crossing,86230 Melrose Plaza,Sadar Bazar,Uttar Pradesh,281002,India,2025-08-29T00:00:00.000Z,2025-08-29T00:00:00.000Z
823,2184 Hazelcrest Way,51992 Barnett Street,Sadar Bazar,Uttar Pradesh,281002,India,2025-08-29T00:00:00.000Z,2025-08-29T00:00:00.000Z
824,2749 Carberry Crossing,3 Kensington Court,Agraharam,Andhra Pradesh,532663,India,2025-08-29T00:00:00.000Z,2025-08-29T00:00:00.000Z
825,58 Eliot Hill,28 Upham Trail,R S,Gujarat,395003,India,2025-08-29T00:00:00.000Z,2025-08-29T00:00:00.000Z
826,50 Hayes Place,8227 Bowman Road,Sadar Bazar,Uttar Pradesh,281002,India,2025-08-29T00:00:00.000Z,2025-08-29T00:00:00.000Z
827,59 Goodland Trail,1 Dwight Trail,Sadar Bazar,Uttar Pradesh,281002,India,2025-08-29T00:00:00.000Z,2025-08-29T00:00:00.000Z
828,640 Emmet Place,20494 Clemons Road,Sadar Bazar,Uttar Pradesh,281002,India,2025-08-29T00:00:00.000Z,2025-08-29T00:00:00.000Z
829,69634 Kenwood Avenue,623 Haas Junction,Agraharam,Andhra Pradesh,532663,India,2025-08-29T00:00:00.000Z,2025-08-29T00:00:00.000Z
830,54343 Elka Trail,47917 Dakota Center,Sadar Bazar,Uttar Pradesh,281002,India,2025-08-29T00:00:00.000Z,2025-08-29T00:00:00.000Z
831,187 Fieldstone Avenue,10 Gulseth Way,R S,Gujarat,395003,India,2025-08-29T00:00:00.000Z,2025-08-29T00:00:00.000Z
832,57 Alpine Parkway,23759 Sunfield Point,R S,Gujarat,395003,India,2025-08-29T00:00:00.000Z,2025-08-29T00:00:00.000Z
833,49201 Spohn Parkway,6187 Hoard Street,Agraharam,Andhra Pradesh,532663,India,2025-08-29T00:00:00.000Z,2025-08-29T00:00:00.000Z
834,47690 Clove Hill,1 Prairie Rose Point,Agraharam,Andhra Pradesh,532663,India,2025-08-29T00:00:00.000Z,2025-08-29T00:00:00.000Z
835,3 Annamark Lane,75 Mitchell Crossing,R S,Gujarat,395003,India,2025-08-29T00:00:00.000Z,2025-08-29T00:00:00.000Z
836,927 Manley Plaza,5 Gina Hill,R S,Gujarat,395003,India,2025-08-29T00:00:00.000Z,2025-08-29T00:00:00.000Z
837,02 Forest Dale Road,9 Nova Trail,R S,Gujarat,395003,India,2025-08-29T00:00:00.000Z,2025-08-29T00:00:00.000Z
838,6148 Troy Junction,3 Florence Crossing,Agraharam,Andhra Pradesh,532663,India,2025-08-29T00:00:00.000Z,2025-08-29T00:00:00.000Z
839,0 Hoard Road,437 Arizona Hill,R S,Gujarat,395003,India,2025-08-29T00:00:00.000Z,2025-08-29T00:00:00.000Z
840,563 Straubel Drive,56552 Center Point,Agraharam,Andhra Pradesh,532663,India,2025-08-29T00:00:00.000Z,2025-08-29T00:00:00.000Z
841,27899 Schlimgen Terrace,18 Huxley Parkway,R S,Gujarat,395003,India,2025-08-29T00:00:00.000Z,2025-08-29T00:00:00.000Z
842,0 Hazelcrest Crossing,265 Bartillon Plaza,R S,Gujarat,395003,India,2025-08-29T00:00:00.000Z,2025-08-29T00:00:00.000Z
843,1 Mallard Crossing,7 Jenna Avenue,R S,Gujarat,395003,India,2025-08-29T00:00:00.000Z,2025-08-29T00:00:00.000Z
844,846 South Park,09875 Gale Junction,Agraharam,Andhra Pradesh,532663,India,2025-08-29T00:00:00.000Z,2025-08-29T00:00:00.000Z
845,08 Clarendon Park,2773 Bay Lane,Agraharam,Andhra Pradesh,532663,India,2025-08-29T00:00:00.000Z,2025-08-29T00:00:00.000Z
846,85336 Sutteridge Terrace,3 Kensington Trail,R S,Gujarat,395003,India,2025-08-29T00:00:00.000Z,2025-08-29T00:00:00.000Z
847,7196 Basil Parkway,69875 Roth Plaza,R S,Gujarat,395003,India,2025-08-29T00:00:00.000Z,2025-08-29T00:00:00.000Z
848,6102 Anniversary Place,88 Chinook Pass,R S,Gujarat,395003,India,2025-08-29T00:00:00.000Z,2025-08-29T00:00:00.000Z
849,8698 Sullivan Street,29365 Boyd Place,Agraharam,Andhra Pradesh,532663,India,2025-08-29T00:00:00.000Z,2025-08-29T00:00:00.000Z
850,3365 Cardinal Terrace,7430 Bunker Hill Lane,Agraharam,Andhra Pradesh,532663,India,2025-08-29T00:00:00.000Z,2025-08-29T00:00:00.000Z
851,08234 Macpherson Center,4 American Ash Center,Agraharam,Andhra Pradesh,532663,India,2025-08-29T00:00:00.000Z,2025-08-29T00:00:00.000Z
852,3914 Beilfuss Avenue,205 Melby Way,R S,Gujarat,395003,India,2025-08-29T00:00:00.000Z,2025-08-29T00:00:00.000Z
853,9 Thierer Park,96 Mifflin Circle,R S,Gujarat,395003,India,2025-08-29T00:00:00.000Z,2025-08-29T00:00:00.000Z
854,70 David Place,6295 Petterle Alley,Agraharam,Andhra Pradesh,532663,India,2025-08-29T00:00:00.000Z,2025-08-29T00:00:00.000Z
855,395 Manitowish Alley,945 Emmet Alley,Agraharam,Andhra Pradesh,532663,India,2025-08-29T00:00:00.000Z,2025-08-29T00:00:00.000Z
856,049 Summer Ridge Avenue,344 Arkansas Avenue,R S,Gujarat,395003,India,2025-08-29T00:00:00.000Z,2025-08-29T00:00:00.000Z
857,423 Mitchell Circle,34 Sachs Point,R S,Gujarat,395003,India,2025-08-29T00:00:00.000Z,2025-08-29T00:00:00.000Z
858,7 Kropf Pass,901 Moose Street,Sadar Bazar,Uttar Pradesh,281002,India,2025-08-29T00:00:00.000Z,2025-08-29T00:00:00.000Z
859,99212 Surrey Point,031 Mandrake Avenue,Agraharam,Andhra Pradesh,532663,India,2025-08-29T00:00:00.000Z,2025-08-29T00:00:00.000Z
860,1369 Del Mar Drive,73052 Glendale Road,Sadar Bazar,Uttar Pradesh,281002,India,2025-08-29T00:00:00.000Z,2025-08-29T00:00:00.000Z
861,9768 Blaine Lane,624 Park Meadow Court,Sadar Bazar,Uttar Pradesh,281002,India,2025-08-29T00:00:00.000Z,2025-08-29T00:00:00.000Z
862,464 Old Shore Place,404 Washington Place,Agraharam,Andhra Pradesh,532663,India,2025-08-29T00:00:00.000Z,2025-08-29T00:00:00.000Z
863,639 Nobel Avenue,62 Oak Valley Avenue,Sadar Bazar,Uttar Pradesh,281002,India,2025-08-29T00:00:00.000Z,2025-08-29T00:00:00.000Z
864,465 Gale Alley,7016 Sunfield Drive,Agraharam,Andhra Pradesh,532663,India,2025-08-29T00:00:00.000Z,2025-08-29T00:00:00.000Z
865,188 Lakewood Gardens Crossing,878 Tony Court,Agraharam,Andhra Pradesh,532663,India,2025-08-29T00:00:00.000Z,2025-08-29T00:00:00.000Z
866,7595 Anhalt Point,19531 Goodland Trail,Agraharam,Andhra Pradesh,532663,India,2025-08-29T00:00:00.000Z,2025-08-29T00:00:00.000Z
867,35026 Twin Pines Road,18989 Jay Avenue,Sadar Bazar,Uttar Pradesh,281002,India,2025-08-29T00:00:00.000Z,2025-08-29T00:00:00.000Z
868,1983 6th Center,21 Waxwing Place,Sadar Bazar,Uttar Pradesh,281002,India,2025-08-29T00:00:00.000Z,2025-08-29T00:00:00.000Z
869,564 Fieldstone Terrace,52 Melby Way,Sadar Bazar,Uttar Pradesh,281002,India,2025-08-29T00:00:00.000Z,2025-08-29T00:00:00.000Z
870,717 Susan Hill,06 Larry Avenue,Agraharam,Andhra Pradesh,532663,India,2025-08-29T00:00:00.000Z,2025-08-29T00:00:00.000Z
871,53120 Anhalt Way,4 Oriole Way,Agraharam,Andhra Pradesh,532663,India,2025-08-29T00:00:00.000Z,2025-08-29T00:00:00.000Z
872,77 Iowa Lane,945 Fuller Drive,Sadar Bazar,Uttar Pradesh,281002,India,2025-08-29T00:00:00.000Z,2025-08-29T00:00:00.000Z
873,773 Continental Alley,7 Leroy Avenue,Sadar Bazar,Uttar Pradesh,281002,India,2025-08-29T00:00:00.000Z,2025-08-29T00:00:00.000Z
874,90 Derek Alley,084 Graedel Court,R S,Gujarat,395003,India,2025-08-29T00:00:00.000Z,2025-08-29T00:00:00.000Z
875,54 Mcguire Point,47207 Superior Terrace,Sadar Bazar,Uttar Pradesh,281002,India,2025-08-29T00:00:00.000Z,2025-08-29T00:00:00.000Z
876,3505 Coleman Hill,40881 Prairieview Street,R S,Gujarat,395003,India,2025-08-29T00:00:00.000Z,2025-08-29T00:00:00.000Z
877,9166 Kenwood Street,13 Novick Parkway,Sadar Bazar,Uttar Pradesh,281002,India,2025-08-29T00:00:00.000Z,2025-08-29T00:00:00.000Z
878,21243 Muir Pass,3 Golf View Parkway,Agraharam,Andhra Pradesh,532663,India,2025-08-29T00:00:00.000Z,2025-08-29T00:00:00.000Z
879,87 Moland Trail,6 Old Gate Way,Sadar Bazar,Uttar Pradesh,281002,India,2025-08-29T00:00:00.000Z,2025-08-29T00:00:00.000Z
880,58 Scott Parkway,546 Elmside Alley,R S,Gujarat,395003,India,2025-08-29T00:00:00.000Z,2025-08-29T00:00:00.000Z
881,1922 Gulseth Point,34398 Artisan Lane,Sadar Bazar,Uttar Pradesh,281002,India,2025-08-29T00:00:00.000Z,2025-08-29T00:00:00.000Z
882,70 Corry Park,5 Mallory Alley,Agraharam,Andhra Pradesh,532663,India,2025-08-29T00:00:00.000Z,2025-08-29T00:00:00.000Z
883,919 Toban Center,2719 Longview Terrace,Sadar Bazar,Uttar Pradesh,281002,India,2025-08-29T00:00:00.000Z,2025-08-29T00:00:00.000Z
884,7 Sundown Drive,978 Fairview Way,Sadar Bazar,Uttar Pradesh,281002,India,2025-08-29T00:00:00.000Z,2025-08-29T00:00:00.000Z
885,08 Warbler Plaza,63 Red Cloud Pass,Sadar Bazar,Uttar Pradesh,281002,India,2025-08-29T00:00:00.000Z,2025-08-29T00:00:00.000Z
886,3510 Eagan Lane,2333 Roth Terrace,Sadar Bazar,Uttar Pradesh,281002,India,2025-08-29T00:00:00.000Z,2025-08-29T00:00:00.000Z
887,52 Algoma Parkway,4512 Chinook Plaza,Sadar Bazar,Uttar Pradesh,281002,India,2025-08-29T00:00:00.000Z,2025-08-29T00:00:00.000Z
888,32232 Arapahoe Circle,9806 Northfield Way,R S,Gujarat,395003,India,2025-08-29T00:00:00.000Z,2025-08-29T00:00:00.000Z
889,16 Westend Plaza,08568 John Wall Way,Agraharam,Andhra Pradesh,532663,India,2025-08-29T00:00:00.000Z,2025-08-29T00:00:00.000Z
890,093 Lukken Drive,01682 Anthes Lane,R S,Gujarat,395003,India,2025-08-29T00:00:00.000Z,2025-08-29T00:00:00.000Z
891,19547 Hagan Center,829 Northfield Road,R S,Gujarat,395003,India,2025-08-29T00:00:00.000Z,2025-08-29T00:00:00.000Z
892,25 Iowa Point,922 Jenna Avenue,R S,Gujarat,395003,India,2025-08-29T00:00:00.000Z,2025-08-29T00:00:00.000Z
893,2 Russell Court,227 Kingsford Pass,R S,Gujarat,395003,India,2025-08-29T00:00:00.000Z,2025-08-29T00:00:00.000Z
894,21986 Havey Road,77672 Jay Circle,Sadar Bazar,Uttar Pradesh,281002,India,2025-08-29T00:00:00.000Z,2025-08-29T00:00:00.000Z
895,8 Dovetail Parkway,0018 Pennsylvania Lane,Agraharam,Andhra Pradesh,532663,India,2025-08-29T00:00:00.000Z,2025-08-29T00:00:00.000Z
896,78452 Susan Court,2 Sachs Pass,Sadar Bazar,Uttar Pradesh,281002,India,2025-08-29T00:00:00.000Z,2025-08-29T00:00:00.000Z
897,00585 Hermina Terrace,22 Gale Plaza,Sadar Bazar,Uttar Pradesh,281002,India,2025-08-29T00:00:00.000Z,2025-08-29T00:00:00.000Z
898,8 Eastlawn Crossing,823 Bonner Point,R S,Gujarat,395003,India,2025-08-29T00:00:00.000Z,2025-08-29T00:00:00.000Z
899,25972 Brentwood Street,50706 Elgar Plaza,Sadar Bazar,Uttar Pradesh,281002,India,2025-08-29T00:00:00.000Z,2025-08-29T00:00:00.000Z
900,1602 Ilene Way,283 Center Way,Agraharam,Andhra Pradesh,532663,India,2025-08-29T00:00:00.000Z,2025-08-29T00:00:00.000Z
901,169 Grayhawk Parkway,1 Kropf Parkway,R S,Gujarat,395003,India,2025-08-29T00:00:00.000Z,2025-08-29T00:00:00.000Z
902,1016 Surrey Road,08489 Tony Lane,Sadar Bazar,Uttar Pradesh,281002,India,2025-08-29T00:00:00.000Z,2025-08-29T00:00:00.000Z
903,42252 Pearson Alley,1493 Meadow Ridge Junction,Agraharam,Andhra Pradesh,532663,India,2025-08-29T00:00:00.000Z,2025-08-29T00:00:00.000Z
904,8734 4th Point,87 Thackeray Alley,Agraharam,Andhra Pradesh,532663,India,2025-08-29T00:00:00.000Z,2025-08-29T00:00:00.000Z
905,3 Melby Pass,8725 Express Junction,R S,Gujarat,395003,India,2025-08-29T00:00:00.000Z,2025-08-29T00:00:00.000Z
906,07060 Morning Hill,700 Randy Point,Sadar Bazar,Uttar Pradesh,281002,India,2025-08-29T00:00:00.000Z,2025-08-29T00:00:00.000Z
907,01383 Lukken Trail,44 Towne Park,Agraharam,Andhra Pradesh,532663,India,2025-08-29T00:00:00.000Z,2025-08-29T00:00:00.000Z
908,2461 Northport Parkway,4451 Hoffman Parkway,Agraharam,Andhra Pradesh,532663,India,2025-08-29T00:00:00.000Z,2025-08-29T00:00:00.000Z
909,2 Schiller Street,9967 Ridgeway Court,R S,Gujarat,395003,India,2025-08-29T00:00:00.000Z,2025-08-29T00:00:00.000Z
910,37602 Judy Street,72 Dryden Pass,Sadar Bazar,Uttar Pradesh,281002,India,2025-08-29T00:00:00.000Z,2025-08-29T00:00:00.000Z
911,78 Caliangt Junction,7336 Glendale Lane,R S,Gujarat,395003,India,2025-08-29T00:00:00.000Z,2025-08-29T00:00:00.000Z
912,97476 Rusk Court,7292 Bunker Hill Junction,Sadar Bazar,Uttar Pradesh,281002,India,2025-08-29T00:00:00.000Z,2025-08-29T00:00:00.000Z
913,64 Fairview Alley,3 Schmedeman Place,Sadar Bazar,Uttar Pradesh,281002,India,2025-08-29T00:00:00.000Z,2025-08-29T00:00:00.000Z
914,06 Debra Road,4 Melody Park,Agraharam,Andhra Pradesh,532663,India,2025-08-29T00:00:00.000Z,2025-08-29T00:00:00.000Z
915,46 Bultman Lane,7 Grasskamp Crossing,Agraharam,Andhra Pradesh,532663,India,2025-08-29T00:00:00.000Z,2025-08-29T00:00:00.000Z
916,5687 Carberry Center,0 Sachs Park,Agraharam,Andhra Pradesh,532663,India,2025-08-29T00:00:00.000Z,2025-08-29T00:00:00.000Z
917,64 Northwestern Park,4 Everett Crossing,R S,Gujarat,395003,India,2025-08-29T00:00:00.000Z,2025-08-29T00:00:00.000Z
918,166 Mcguire Road,75880 Sachs Avenue,R S,Gujarat,395003,India,2025-08-29T00:00:00.000Z,2025-08-29T00:00:00.000Z
919,4929 Park Meadow Crossing,7 Shelley Place,Sadar Bazar,Uttar Pradesh,281002,India,2025-08-29T00:00:00.000Z,2025-08-29T00:00:00.000Z
920,933 Fisk Plaza,313 Barnett Plaza,Agraharam,Andhra Pradesh,532663,India,2025-08-29T00:00:00.000Z,2025-08-29T00:00:00.000Z
921,1084 Arrowood Road,45354 Londonderry Drive,Sadar Bazar,Uttar Pradesh,281002,India,2025-08-29T00:00:00.000Z,2025-08-29T00:00:00.000Z
922,473 Schlimgen Pass,331 Heath Pass,Agraharam,Andhra Pradesh,532663,India,2025-08-29T00:00:00.000Z,2025-08-29T00:00:00.000Z
923,2639 Westend Place,3848 Waubesa Trail,R S,Gujarat,395003,India,2025-08-29T00:00:00.000Z,2025-08-29T00:00:00.000Z
924,54 Vera Lane,427 Eggendart Place,Agraharam,Andhra Pradesh,532663,India,2025-08-29T00:00:00.000Z,2025-08-29T00:00:00.000Z
925,201 Westport Plaza,45082 Hanson Court,R S,Gujarat,395003,India,2025-08-29T00:00:00.000Z,2025-08-29T00:00:00.000Z
926,67833 Chive Street,430 Lukken Avenue,R S,Gujarat,395003,India,2025-08-29T00:00:00.000Z,2025-08-29T00:00:00.000Z
927,4776 Forest Way,4197 Bellgrove Trail,R S,Gujarat,395003,India,2025-08-29T00:00:00.000Z,2025-08-29T00:00:00.000Z
928,59240 Green Ridge Point,1090 Heffernan Avenue,Agraharam,Andhra Pradesh,532663,India,2025-08-29T00:00:00.000Z,2025-08-29T00:00:00.000Z
929,07 Waxwing Avenue,317 Burning Wood Park,Sadar Bazar,Uttar Pradesh,281002,India,2025-08-29T00:00:00.000Z,2025-08-29T00:00:00.000Z
930,05138 Banding Terrace,70 Bultman Court,Agraharam,Andhra Pradesh,532663,India,2025-08-29T00:00:00.000Z,2025-08-29T00:00:00.000Z
931,45 Loeprich Way,59690 Del Sol Place,Agraharam,Andhra Pradesh,532663,India,2025-08-29T00:00:00.000Z,2025-08-29T00:00:00.000Z
932,4908 Kim Hill,70109 Warbler Pass,R S,Gujarat,395003,India,2025-08-29T00:00:00.000Z,2025-08-29T00:00:00.000Z
933,056 Evergreen Trail,02847 Waxwing Way,R S,Gujarat,395003,India,2025-08-29T00:00:00.000Z,2025-08-29T00:00:00.000Z
934,39944 Bunting Court,02 Fremont Point,R S,Gujarat,395003,India,2025-08-29T00:00:00.000Z,2025-08-29T00:00:00.000Z
935,1641 Spaight Center,42114 Mcguire Circle,R S,Gujarat,395003,India,2025-08-29T00:00:00.000Z,2025-08-29T00:00:00.000Z
936,72 Johnson Court,355 Kings Park,Sadar Bazar,Uttar Pradesh,281002,India,2025-08-29T00:00:00.000Z,2025-08-29T00:00:00.000Z
937,2 Eagle Crest Circle,9 Sage Trail,Agraharam,Andhra Pradesh,532663,India,2025-08-29T00:00:00.000Z,2025-08-29T00:00:00.000Z
938,6 Pawling Point,2492 Bay Terrace,Sadar Bazar,Uttar Pradesh,281002,India,2025-08-29T00:00:00.000Z,2025-08-29T00:00:00.000Z
939,5 Scott Lane,72709 Golf View Trail,Agraharam,Andhra Pradesh,532663,India,2025-08-29T00:00:00.000Z,2025-08-29T00:00:00.000Z
940,2 Fuller Hill,13 Scofield Place,Agraharam,Andhra Pradesh,532663,India,2025-08-29T00:00:00.000Z,2025-08-29T00:00:00.000Z
941,954 Lunder Crossing,94 Russell Point,Agraharam,Andhra Pradesh,532663,India,2025-08-29T00:00:00.000Z,2025-08-29T00:00:00.000Z
942,053 Miller Street,6004 Stoughton Way,Sadar Bazar,Uttar Pradesh,281002,India,2025-08-29T00:00:00.000Z,2025-08-29T00:00:00.000Z
943,5 Waywood Center,1584 Banding Road,Agraharam,Andhra Pradesh,532663,India,2025-08-29T00:00:00.000Z,2025-08-29T00:00:00.000Z
944,4515 Larry Park,039 Rockefeller Junction,Agraharam,Andhra Pradesh,532663,India,2025-08-29T00:00:00.000Z,2025-08-29T00:00:00.000Z
945,45104 Dennis Terrace,34 Sullivan Lane,Agraharam,Andhra Pradesh,532663,India,2025-08-29T00:00:00.000Z,2025-08-29T00:00:00.000Z
946,67 Thierer Lane,361 Anhalt Parkway,Sadar Bazar,Uttar Pradesh,281002,India,2025-08-29T00:00:00.000Z,2025-08-29T00:00:00.000Z
947,26991 John Wall Plaza,3425 Dennis Crossing,Agraharam,Andhra Pradesh,532663,India,2025-08-29T00:00:00.000Z,2025-08-29T00:00:00.000Z
948,4118 Spohn Crossing,4271 Mayer Place,Sadar Bazar,Uttar Pradesh,281002,India,2025-08-29T00:00:00.000Z,2025-08-29T00:00:00.000Z
949,8592 Hoepker Parkway,68877 5th Junction,R S,Gujarat,395003,India,2025-08-29T00:00:00.000Z,2025-08-29T00:00:00.000Z
950,6 Northwestern Plaza,39693 Algoma Hill,R S,Gujarat,395003,India,2025-08-29T00:00:00.000Z,2025-08-29T00:00:00.000Z
951,727 Elmside Road,62 Bultman Park,R S,Gujarat,395003,India,2025-08-29T00:00:00.000Z,2025-08-29T00:00:00.000Z
952,41 Waubesa Trail,40292 Orin Road,Sadar Bazar,Uttar Pradesh,281002,India,2025-08-29T00:00:00.000Z,2025-08-29T00:00:00.000Z
953,00982 Oak Trail,295 Badeau Pass,Agraharam,Andhra Pradesh,532663,India,2025-08-29T00:00:00.000Z,2025-08-29T00:00:00.000Z
954,9224 Forster Crossing,6 Macpherson Hill,Agraharam,Andhra Pradesh,532663,India,2025-08-29T00:00:00.000Z,2025-08-29T00:00:00.000Z
955,34 Buhler Parkway,96 Melby Plaza,Sadar Bazar,Uttar Pradesh,281002,India,2025-08-29T00:00:00.000Z,2025-08-29T00:00:00.000Z
956,05 Loomis Circle,0987 Buena Vista Crossing,Sadar Bazar,Uttar Pradesh,281002,India,2025-08-29T00:00:00.000Z,2025-08-29T00:00:00.000Z
957,0 Clyde Gallagher Point,8515 Cardinal Court,Agraharam,Andhra Pradesh,532663,India,2025-08-29T00:00:00.000Z,2025-08-29T00:00:00.000Z
958,626 Eastwood Hill,6537 Northland Road,R S,Gujarat,395003,India,2025-08-29T00:00:00.000Z,2025-08-29T00:00:00.000Z
959,41310 Sommers Center,6 Pine View Junction,Agraharam,Andhra Pradesh,532663,India,2025-08-29T00:00:00.000Z,2025-08-29T00:00:00.000Z
960,217 Ramsey Road,172 Badeau Plaza,R S,Gujarat,395003,India,2025-08-29T00:00:00.000Z,2025-08-29T00:00:00.000Z
961,22 Northfield Junction,09726 Killdeer Plaza,R S,Gujarat,395003,India,2025-08-29T00:00:00.000Z,2025-08-29T00:00:00.000Z
962,612 Vidon Alley,90793 Mandrake Crossing,R S,Gujarat,395003,India,2025-08-29T00:00:00.000Z,2025-08-29T00:00:00.000Z
963,64 Schurz Terrace,4552 Lawn Road,R S,Gujarat,395003,India,2025-08-29T00:00:00.000Z,2025-08-29T00:00:00.000Z
964,6602 Gale Park,39571 Dapin Parkway,R S,Gujarat,395003,India,2025-08-29T00:00:00.000Z,2025-08-29T00:00:00.000Z
965,29 Spohn Junction,9083 Bluestem Center,R S,Gujarat,395003,India,2025-08-29T00:00:00.000Z,2025-08-29T00:00:00.000Z
966,4 Johnson Hill,20461 Walton Center,Sadar Bazar,Uttar Pradesh,281002,India,2025-08-29T00:00:00.000Z,2025-08-29T00:00:00.000Z
967,20 Holy Cross Parkway,86930 Gerald Street,Agraharam,Andhra Pradesh,532663,India,2025-08-29T00:00:00.000Z,2025-08-29T00:00:00.000Z
968,322 Burrows Alley,18 Badeau Alley,R S,Gujarat,395003,India,2025-08-29T00:00:00.000Z,2025-08-29T00:00:00.000Z
969,67087 Farwell Alley,37 Tony Center,Sadar Bazar,Uttar Pradesh,281002,India,2025-08-29T00:00:00.000Z,2025-08-29T00:00:00.000Z
970,317 Sutherland Parkway,33782 Waxwing Alley,R S,Gujarat,395003,India,2025-08-29T00:00:00.000Z,2025-08-29T00:00:00.000Z
971,2074 Maple Wood Terrace,42513 Fordem Park,R S,Gujarat,395003,India,2025-08-29T00:00:00.000Z,2025-08-29T00:00:00.000Z
972,24 Clyde Gallagher Court,2 Sherman Street,Sadar Bazar,Uttar Pradesh,281002,India,2025-08-29T00:00:00.000Z,2025-08-29T00:00:00.000Z
973,10 Leroy Plaza,462 Onsgard Park,Sadar Bazar,Uttar Pradesh,281002,India,2025-08-29T00:00:00.000Z,2025-08-29T00:00:00.000Z
974,64 Harbort Pass,37329 Dakota Lane,Sadar Bazar,Uttar Pradesh,281002,India,2025-08-29T00:00:00.000Z,2025-08-29T00:00:00.000Z
975,3916 Parkside Point,84171 Warrior Point,R S,Gujarat,395003,India,2025-08-29T00:00:00.000Z,2025-08-29T00:00:00.000Z
976,74 Acker Way,860 Arrowood Junction,Agraharam,Andhra Pradesh,532663,India,2025-08-29T00:00:00.000Z,2025-08-29T00:00:00.000Z
977,343 Eagan Way,46 Raven Terrace,Agraharam,Andhra Pradesh,532663,India,2025-08-29T00:00:00.000Z,2025-08-29T00:00:00.000Z
978,6 Dunning Avenue,154 Bowman Circle,R S,Gujarat,395003,India,2025-08-29T00:00:00.000Z,2025-08-29T00:00:00.000Z
979,87819 Forster Drive,7148 Thackeray Park,Agraharam,Andhra Pradesh,532663,India,2025-08-29T00:00:00.000Z,2025-08-29T00:00:00.000Z
980,55144 Fuller Drive,925 Birchwood Junction,Sadar Bazar,Uttar Pradesh,281002,India,2025-08-29T00:00:00.000Z,2025-08-29T00:00:00.000Z
981,46938 Crownhardt Park,687 Jana Court,Agraharam,Andhra Pradesh,532663,India,2025-08-29T00:00:00.000Z,2025-08-29T00:00:00.000Z
982,56 Northridge Pass,83787 Cherokee Crossing,Sadar Bazar,Uttar Pradesh,281002,India,2025-08-29T00:00:00.000Z,2025-08-29T00:00:00.000Z
983,5073 Golf Course Terrace,539 Bellgrove Center,R S,Gujarat,395003,India,2025-08-29T00:00:00.000Z,2025-08-29T00:00:00.000Z
984,73 Kingsford Crossing,519 Beilfuss Street,Agraharam,Andhra Pradesh,532663,India,2025-08-29T00:00:00.000Z,2025-08-29T00:00:00.000Z
985,35 Thompson Court,2322 Pond Lane,Agraharam,Andhra Pradesh,532663,India,2025-08-29T00:00:00.000Z,2025-08-29T00:00:00.000Z
986,07 Calypso Avenue,73880 Surrey Park,Sadar Bazar,Uttar Pradesh,281002,India,2025-08-29T00:00:00.000Z,2025-08-29T00:00:00.000Z
987,7471 3rd Terrace,49315 Park Meadow Circle,R S,Gujarat,395003,India,2025-08-29T00:00:00.000Z,2025-08-29T00:00:00.000Z
988,25 Nancy Trail,03 Bashford Court,R S,Gujarat,395003,India,2025-08-29T00:00:00.000Z,2025-08-29T00:00:00.000Z
989,03 Milwaukee Way,719 Butternut Road,R S,Gujarat,395003,India,2025-08-29T00:00:00.000Z,2025-08-29T00:00:00.000Z
990,3 Messerschmidt Court,7740 Northport Center,Sadar Bazar,Uttar Pradesh,281002,India,2025-08-29T00:00:00.000Z,2025-08-29T00:00:00.000Z
991,07 Scofield Junction,930 Roxbury Terrace,Agraharam,Andhra Pradesh,532663,India,2025-08-29T00:00:00.000Z,2025-08-29T00:00:00.000Z
992,7897 Di Loreto Street,12749 Garrison Circle,Sadar Bazar,Uttar Pradesh,281002,India,2025-08-29T00:00:00.000Z,2025-08-29T00:00:00.000Z
993,69 Northfield Parkway,23 Sachtjen Plaza,Sadar Bazar,Uttar Pradesh,281002,India,2025-08-29T00:00:00.000Z,2025-08-29T00:00:00.000Z
994,17533 Monterey Lane,19283 Bartillon Avenue,Sadar Bazar,Uttar Pradesh,281002,India,2025-08-29T00:00:00.000Z,2025-08-29T00:00:00.000Z
995,8 Morrow Center,0 John Wall Road,Sadar Bazar,Uttar Pradesh,281002,India,2025-08-29T00:00:00.000Z,2025-08-29T00:00:00.000Z
996,1 Straubel Street,70 Dixon Center,Agraharam,Andhra Pradesh,532663,India,2025-08-29T00:00:00.000Z,2025-08-29T00:00:00.000Z
997,74456 Harper Center,59655 Melvin Avenue,Agraharam,Andhra Pradesh,532663,India,2025-08-29T00:00:00.000Z,2025-08-29T00:00:00.000Z
998,818 Del Mar Street,1282 Bellgrove Junction,Agraharam,Andhra Pradesh,532663,India,2025-08-29T00:00:00.000Z,2025-08-29T00:00:00.000Z
999,3 Canary Center,54277 Lighthouse Bay Circle,Agraharam,Andhra Pradesh,532663,India,2025-08-29T00:00:00.000Z,2025-08-29T00:00:00.000Z
1000,5386 Londonderry Place,852 Mcguire Avenue,Sadar Bazar,Uttar Pradesh,281002,India,2025-08-29T00:00:00.000Z,2025-08-29T00:00:00.000Z
